OBJECTID,Hospital Name,Category,Address Line,Suburb,State,Postcode,x,y
1,WESTERN DISTRICT HEALTH SERVICE - HAMILTON,PUBLIC HOSPITAL,20 FOSTER STREET,HAMILTON,VIC,3300,142.03061332,-37.7364815
2,WESTERN DISTRICT HEALTH SERVICE - PENSHURST,PUBLIC HOSPITAL,146 COBB STREET,PENSHURST,VIC,3289,142.28248081,-37.877267
3,COLAC AREA HEALTH,PUBLIC HOSPITAL,2-28 CONNOR STREET,COLAC,VIC,3250,143.58285167,-38.3411963299999
4,HESSE RURAL HEALTH SERVICE,PUBLIC HOSPITAL,8 GOSNEY STREET,WINCHELSEA,VIC,3241,143.9853545,-38.24338847
5,GREAT OCEAN ROAD HEALTH - OTWAY HEALTH,PUBLIC HOSPITAL,75 MCLACHLAN STREET,APOLLO BAY,VIC,3233,143.66442577,-38.7541479399999
6,BARWON HEALTH - GEELONG HOSPITAL CAMPUS,PUBLIC HOSPITAL,BELLERINE STREET,GEELONG,VIC,3220,144.36496272,-38.15152713
7,CASTERTON MEMORIAL HOSPITAL,PUBLIC HOSPITAL,63-69 RUSSELL STREET,CASTERTON,VIC,3311,141.39228226,-37.58998973
8,WESTERN DISTRICT HEALTH SERVICE - COLERAINE,PUBLIC HOSPITAL,71 MCLEOD STREET,COLERAINE,VIC,3315,141.69222629,-37.60013162
9,SOUTH WEST HEALTHCARE - WARRNAMBOOL CAMPUS,PUBLIC HOSPITAL,RYOT STREET,WARRNAMBOOL,VIC,3280,142.47294153,-38.38008366
10,BEAUFORT & SKIPTON HEALTH SERVICES - BEAUFORT CAMPUS,PUBLIC HOSPITAL,28 HAVELOCK STREET,BEAUFORT,VIC,3373,143.38228801,-37.4310190099999
11,BEAUFORT & SKIPTON HEALTH SERVICES - SKIPTON CAMPUS,PUBLIC HOSPITAL,BLAKE STREET,SKIPTON,VIC,3361,143.36767197,-37.68428469
12,HEYWOOD RURAL HEALTH,PUBLIC HOSPITAL,21 BARCLAY STREET,HEYWOOD,VIC,3304,141.62424605,-38.1377816999999
13,TIMBOON & DISTRICT HEALTHCARE SERVICE,PUBLIC HOSPITAL,21 HOSPITAL ROAD,TIMBOON,VIC,3268,142.97671561,-38.4862261599999
14,MOYNE HEALTH SERVICES,PUBLIC HOSPITAL,30-36 VILLIERS STREET,PORT FAIRY,VIC,3284,142.22751238,-38.3815825199999
15,PORTLAND DISTRICT HEALTH,PUBLIC HOSPITAL,141-151 BENTINCK STREET,PORTLAND,VIC,3305,141.60541338,-38.34106618
16,GREAT OCEAN ROAD HEALTH - LORNE COMMUNITY HOSPITAL,PUBLIC HOSPITAL,1 ALBERT STREET,LORNE,VIC,3232,143.98074205,-38.5455150999999
17,BARWON HEALTH - MCKELLAR CENTRE CAMPUS,PUBLIC HOSPITAL,45-95 BALLARAT ROAD,NORTH GEELONG,VIC,3215,144.335723,-38.11879813
18,SOUTH WEST HEALTHCARE - CAMPERDOWN,PUBLIC HOSPITAL,9 ROBINSON STREET,CAMPERDOWN,VIC,3260,143.13771318,-38.23709339
19,TERANG & MORTLAKE HEALTH SERVICE,PUBLIC HOSPITAL,13 AUSTIN AVENUE,TERANG,VIC,3264,142.90211674,-38.23938284
20,EAST GRAMPIANS HEALTH SERVICE - ARARAT,PUBLIC HOSPITAL,LOT 5B GIRDLESTONE STREET,ARARAT,VIC,3377,142.93278581,-37.27903544
21,EAST GRAMPIANS HEALTH SERVICE - WILLAURA CAMPUS,PUBLIC HOSPITAL,DELACOMBE WAY,WILLAURA,VIC,3379,142.74586397,-37.5447944599999
22,RURAL NORTHWEST HEALTH - WARRACKNABEAL CAMPUS,PUBLIC HOSPITAL,18 DIMBOOLA ROAD,WARRACKNABEAL,VIC,3393,142.38148288,-36.2522845399999
23,RURAL NORTHWEST HEALTH - HOPETOUN CAMPUS,PUBLIC HOSPITAL,12 MITCHELL PLACE,HOPETOUN,VIC,3396,142.36641378,-35.7322025199999
24,BALLARAT HEALTH SERVICES (BASE HOSPITAL),PUBLIC HOSPITAL,1 DUMMOND STREET NORTH,BALLARAT CENTRAL,VIC,3350,143.84703329,-37.55966145
25,BALLARAT HEALTH SERVICES - QUEEN ELIZABETH CENTRE,PUBLIC HOSPITAL,102 ASCOT STREET,BALLARAT,VIC,3350,143.84327059,-37.56428141
26,WIMMERA HEALTH CARE GROUP - HORSHAM,PUBLIC HOSPITAL,83 BAILLIE STREET,HORSHAM,VIC,3400,142.208522,-36.7124360399999
27,DUNMUNKLE HEALTH SERVICES,PUBLIC HOSPITAL,89 CROMIE STREET,RUPANYUP,VIC,3388,142.63184348,-36.63656731
28,STAWELL REGIONAL HEALTH,PUBLIC HOSPITAL,27-29 SLOANE STREET,STAWELL,VIC,3380,142.78145278,-37.05939541
29,WEST WIMMERA HEALTH SERVICE - KANIVA,PUBLIC HOSPITAL,9 FARMERS STREET,KANIVA,VIC,3419,141.24599582,-36.38138269
30,WEST WIMMERA HEALTH SERVICE - NHILL,PUBLIC HOSPITAL,45 NELSON STREET,NHILL,VIC,3418,141.65557175,-36.3340019899999
31,WEST WIMMERA HEALTH SERVICE - RAINBOW,PUBLIC HOSPITAL,2 SWINBOURNE AVENUE,RAINBOW,VIC,3424,141.99511278,-35.9038688599999
32,WEST WIMMERA HEALTH SERVICE - JEPARIT,PUBLIC HOSPITAL,2 CHARLES STREET,JEPARIT,VIC,3423,141.98468741,-36.1411304499999
33,EAST WIMMERA HEALTH SERVICE - ST ARNAUD,PUBLIC HOSPITAL,52 NORTH WESTERN ROAD,ST ARNAUD,VIC,3478,143.24684761,-36.60955849
34,WESTERN HEALTH - BACCHUS MARSH,PUBLIC HOSPITAL,29-35 GRANT STREET,BACCHUS MARSH,VIC,3340,144.43326013,-37.6782626199999
35,WIMMERA HEALTH CARE GROUP - DIMBOOLA,PUBLIC HOSPITAL,32-36 ANDERSON STREET,DIMBOOLA,VIC,3414,142.02429375,-36.44988324
36,EDENHOPE AND DISTRICT MEMORIAL HOSPITAL,PUBLIC HOSPITAL,128-134 ELIZABETH STREET,EDENHOPE,VIC,3318,141.28882156,-37.0353201099999
37,WESTERN HEALTH - MELTON HEALTH,PUBLIC HOSPITAL,195-209 BARRIES ROAD,MELTON WEST,VIC,3337,144.5577963,-37.6869403699999
38,CENTRAL HIGHLANDS RURAL HEALTH - DAYLESFORD,PUBLIC HOSPITAL,13 HOSPITAL STREET,DAYLESFORD,VIC,3460,144.14576757,-37.3373613799999
39,CENTRAL HIGHLANDS RURAL HEALTH - CRESWICK,PUBLIC HOSPITAL,1 NAPIER STREET,CRESWICK,VIC,3363,143.89153422,-37.42118948
40,GOULBURN VALLEY HEALTH - WARANGA CAMPUS,PUBLIC HOSPITAL,14 COYLE STREET,RUSHWORTH,VIC,3612,145.00858209,-36.5878224099999
41,KYABRAM & DISTRICT HEALTH SERVICES,PUBLIC HOSPITAL,88 FENAUGHTY STREET,KYABRAM,VIC,3620,145.04270434,-36.31553732
42,CENTRAL HIGHLANDS RURAL HEALTH - KYNETON,PUBLIC HOSPITAL,7-25 CAROLINE CHISHOLM DRIVE,KYNETON,VIC,3444,144.46973749,-37.25443044
43,HEATHCOTE HEALTH,PUBLIC HOSPITAL,39 HOSPITAL STREET,HEATHCOTE,VIC,3523,144.70949624,-36.9257949399999
44,MARYBOROUGH DISTRICT HEALTH SERVICE (MARYBOROUGH),PUBLIC HOSPITAL,75-87 CLARENDON STREET,MARYBOROUGH,VIC,3465,143.73769699,-37.04478442
45,MARYBOROUGH DISTRICT HEALTH SERVICE (DUNOLLY),PUBLIC HOSPITAL,20 HAVELOCK STREET,DUNOLLY,VIC,3472,143.73513577,-36.85526757
46,SWAN HILL DISTRICT HEALTH [SWAN HILL],PUBLIC HOSPITAL,48 SPLATT STREET,SWAN HILL,VIC,3585,143.55651663,-35.34060146
47,EAST WIMMERA HEALTH SERVICE - WYCHEPROOF,PUBLIC HOSPITAL,19 GRANDVIEW STREET,WYCHEPROOF,VIC,3527,143.23377183,-36.07843947
48,COHUNA DISTRICT HOSPITAL,PUBLIC HOSPITAL,144-158 KING GEORGE STREET,COHUNA,VIC,3568,144.21495134,-35.8002138699999
49,ECHUCA REGIONAL HEALTH,PUBLIC HOSPITAL,9-27 FRANCIS STREET,ECHUCA,VIC,3564,144.7483542,-36.13818665
50,KERANG DISTRICT HEALTH,PUBLIC HOSPITAL,13 BURGOYNE STREET,KERANG,VIC,3579,143.91785131,-35.72420224
51,MILDURA BASE PUBLIC HOSPITAL,PUBLIC HOSPITAL,220-228 THIRTEENTH STREET,MILDURA,VIC,3500,142.14349439,-34.18563305
52,MALLEE TRACK HEALTH AND COMMUNITY SERVICE,PUBLIC HOSPITAL,28 BRITT STREET,OUYEN,VIC,3490,142.31234098,-35.0743482399999
53,MALDON HOSPITAL,PUBLIC HOSPITAL,CHAPEL STREET,MALDON,VIC,3463,144.06367211,-36.9926697
54,ROBINVALE DISTRICT HEALTH SERVICES - MANANGATANG CAMPUS,PUBLIC HOSPITAL,37 PIONEER STREET,MANANGATANG,VIC,3546,142.88088702,-35.05110887
55,BOORT DISTRICT HEALTH,PUBLIC HOSPITAL,31 KINIRY STREET,BOORT,VIC,3537,143.72752128,-36.11171661
56,ROBINVALE DISTRICT HEALTH SERVICES - ROBINVALE CAMPUS,PUBLIC HOSPITAL,128-132 LATJE ROAD,ROBINVALE,VIC,3549,142.78137086,-34.5841326199999
57,ROCHESTER AND ELMORE DISTRICT HEALTH SERVICE,PUBLIC HOSPITAL,1 PASCOE STREET,ROCHESTER,VIC,3561,144.69774891,-36.36657618
58,EAST WIMMERA HEALTH SERVICE - DONALD,PUBLIC HOSPITAL,7 AITKEN AVENUE,DONALD,VIC,3480,142.9763515,-36.36694376
59,INGLEWOOD AND DISTRICT HEALTH SERVICE,PUBLIC HOSPITAL,3 HOSPITAL STREET,INGLEWOOD,VIC,3517,143.87374931,-36.57214255
60,EAST WIMMERA HEALTH SERVICE - BIRCHIP,PUBLIC HOSPITAL,26 DUNCAN STREET,BIRCHIP,VIC,3483,142.9156292,-35.9801650799999
61,EAST WIMMERA HEALTH SERVICE - CHARLTON,PUBLIC HOSPITAL,4 MENZIES STREET,CHARLTON,VIC,3525,143.35254363,-36.26878569
62,CASTLEMAINE HEALTH,PUBLIC HOSPITAL,142 CORNISH STREET,CASTLEMAINE,VIC,3450,144.21230865,-37.05253146
63,GOULBURN VALLEY HEALTH - SHEPPARTON CAMPUS,PUBLIC HOSPITAL,2 GRAHAM STREET,SHEPPARTON,VIC,3630,145.40491398,-36.3636141599999
64,GOULBURN VALLEY HEALTH - TATURA CAMPUS,PUBLIC HOSPITAL,64-68 PARK STREET,TATURA,VIC,3616,145.22553467,-36.43907172
65,NORTHEAST HEALTH WANGARATTA,PUBLIC HOSPITAL,35-47 GREEN STREET,WANGARATTA,VIC,3677,146.31387893,-36.3540270399999
66,TALLANGATTA HEALTH SERVICE,PUBLIC HOSPITAL,25 BARREE STREET,TALLANGATTA,VIC,3700,147.18369816,-36.2137037599999
67,ALBURY WODONGA HEALTH - WODONGA CAMPUS,PUBLIC HOSPITAL,69 VERMONT STREET,WODONGA,VIC,3690,146.87942192,-36.13179023
68,YARRAWONGA HEALTH,PUBLIC HOSPITAL,33 PIPER STREET,YARRAWONGA,VIC,3730,146.00658757,-36.01187906
69,ALPINE HEALTH (MYRTLEFORD),PUBLIC HOSPITAL,30 O'DONNELL AVENUE,MYRTLEFORD,VIC,3736,146.72879869,-36.55452021
70,ALPINE HEALTH (BRIGHT),PUBLIC HOSPITAL,36-42 COBDEN STREET,BRIGHT,VIC,3741,146.96601239,-36.73308524
71,ALPINE HEALTH (MOUNT BEAUTY),PUBLIC HOSPITAL,10 HOLLONDS STREET,MT BEAUTY,VIC,3699,147.16983351,-36.74337056
72,UPPER MURRAY HEALTH AND COMMUNITY SERVICES,PUBLIC HOSPITAL,20 KIELL STREET,CORRYONG,VIC,3707,147.9027917,-36.19870407
73,SEYMOUR HEALTH,PUBLIC HOSPITAL,1 BRETTONEAUX STREET,SEYMOUR,VIC,3660,145.13875047,-37.0186723099999
74,MANSFIELD DISTRICT HOSPITAL,PUBLIC HOSPITAL,53 HIGHETT STREET,MANSFIELD,VIC,3722,146.0861323,-37.05757435
75,ALEXANDRA DISTRICT HOSPITAL,PUBLIC HOSPITAL,12 COOPER STREET,ALEXANDRA,VIC,3714,145.71750192,-37.19479587
76,NUMURKAH DISTRICT HEALTH SERVICE,PUBLIC HOSPITAL,2 KATAMATITE ROAD,NUMURKAH,VIC,3636,145.44370455,-36.1000022699999
77,THE KILMORE AND DISTRICT HOSPITAL,PUBLIC HOSPITAL,1 ANDERSON ROAD,KILMORE,VIC,3764,144.95791345,-37.30179378
78,YEA AND DISTRICT MEMORIAL HOSPITAL,PUBLIC HOSPITAL,45 STATION STREET,YEA,VIC,3717,145.4307269,-37.21363364
79,NATHALIA DISTRICT HOSPITAL,PUBLIC HOSPITAL,36-44 MCDONNELL STREET,NATHALIA,VIC,3638,145.19762647,-36.05636994
80,BENALLA HEALTH,PUBLIC HOSPITAL,45-53 COSTER STREET,BENALLA,VIC,3672,145.99467769,-36.5552346499999
81,BEECHWORTH HEALTH SERVICE,PUBLIC HOSPITAL,52 SYDNEY ROAD,BEECHWORTH,VIC,3747,146.69148502,-36.34942223
82,COBRAM DISTRICT HEALTH,PUBLIC HOSPITAL,24-32 BROADWAY STREET,COBRAM,VIC,3644,145.65102423,-35.9162705599999
83,BAIRNSDALE REGIONAL HEALTH SERVICE,PUBLIC HOSPITAL,122 DAY STREET,BAIRNSDALE,VIC,3875,147.60823556,-37.8317150999999
84,WEST GIPPSLAND HEALTHCARE GROUP,PUBLIC HOSPITAL,41 LANDSBOROUGH STREET,WARRAGUL,VIC,3820,145.92784829,-38.17292265
85,BASS COAST REGIONAL HEALTH,PUBLIC HOSPITAL,235 GRAHAM STREET,WONTHAGGI,VIC,3995,145.58090472,-38.60875078
86,YARRAM & DISTRICT HEALTH SERVICE,PUBLIC HOSPITAL,85-91 COMMERCIAL ROAD,YARRAM,VIC,3971,146.67831049,-38.55697472
87,OMEO DISTRICT HEALTH,PUBLIC HOSPITAL,12 EASTON STREET,OMEO,VIC,3898,147.597323,-37.09813408
88,CENTRAL GIPPSLAND HEALTH SERVICE (SALE),PUBLIC HOSPITAL,155 GUTHRIDGE PARADE,SALE,VIC,3850,147.08063129,-38.10841267
89,GIPPSLAND SOUTHERN HEALTH SERVICE - KORUMBURRA CAMPUS,PUBLIC HOSPITAL,69-75 BRIDGE STREET,KORUMBURRA,VIC,3950,145.82823607,-38.43031594
90,GIPPSLAND SOUTHERN HEALTH SERVICE - LEONGATHA CAMPUS,PUBLIC HOSPITAL,66 KOONAWARRA ROAD,LEONGATHA,VIC,3953,145.95058228,-38.4877949999999
91,LATROBE REGIONAL HOSPITAL,PUBLIC HOSPITAL,10 VILLAGE AVENUE,TRARALGON,VIC,3844,146.47133222,-38.21847782
92,CENTRAL GIPPSLAND HEALTH SERVICE (MAFFRA),PUBLIC HOSPITAL,48 KENT STREET,MAFFRA,VIC,3860,146.98349392,-37.96102775
93,SOUTH GIPPSLAND HOSPITAL,PUBLIC HOSPITAL,87 STATION ROAD,FOSTER,VIC,3960,146.20630229,-38.6590251
94,ORBOST REGIONAL HEALTH,PUBLIC HOSPITAL,104 BOUNDARY ROAD,ORBOST,VIC,3888,148.465536,-37.70171605
95,BOX HILL HOSPITAL,PUBLIC HOSPITAL,51 NELSON ROAD,BOX HILL,VIC,3128,145.11908427,-37.81369036
96,MONASH MEDICAL CENTRE - CLAYTON CAMPUS,PUBLIC HOSPITAL,246 CLAYTON ROAD,CLAYTON,VIC,3168,145.12270969,-37.9204956099999
97,MONASH MEDICAL CENTRE - MOORABBIN CAMPUS,PUBLIC HOSPITAL,823-865 CENTRE ROAD,BENTLEIGH EAST,VIC,3165,145.06319796,-37.9206940299999
98,MAROONDAH HOSPITAL,PUBLIC HOSPITAL,1-15 MT DANDENONG ROAD,RINGWOOD EAST,VIC,3135,145.2545464,-37.80687855
99,ANGLISS HOSPITAL,PUBLIC HOSPITAL,ALBERT STREET,UPPER FERNTREE GULLY,VIC,3156,145.31416774,-37.89865975
100,CARITAS CHRISTI HOSPICE,PUBLIC HOSPITAL,104 STUDLEY PARK ROAD,KEW,VIC,3101,145.01555936,-37.80470214
101,MERCY HEALTH - O'CONNELL FAMILY CENTRE CAMPUS,PUBLIC HOSPITAL,6 MONT ALBERT ROAD,CANTERBURY,VIC,3126,145.06172686,-37.8166945199999
102,PETER JAMES CENTRE,PUBLIC HOSPITAL,321-345 BURWOOD HIGHWAY,FOREST HILL,VIC,3131,145.16453701,-37.85270366
103,WANTIRNA HEALTH,PUBLIC HOSPITAL,251 MOUNTAIN HIGHWAY,WANTIRNA,VIC,3152,145.225892,-37.8485205499999
104,ROYAL TALBOT REHABILITATION CENTRE,PUBLIC HOSPITAL,1 YARRA BOULEVARD,KEW,VIC,3101,145.02370662,-37.78951173
105,HEALESVILLE & DISTRICT HOSPITAL,PUBLIC HOSPITAL,377 MAROONDAH HIGHWAY,HEALESVILLE,VIC,3777,145.5290281,-37.64687795
106,FRANKSTON HOSPITAL,PUBLIC HOSPITAL,2 HASTINGS ROAD,FRANKSTON,VIC,3199,145.12842731,-38.1507931899999
107,ROSEBUD HOSPITAL,PUBLIC HOSPITAL,1527 POINT NEPEAN ROAD,ROSEBUD,VIC,3939,144.88489048,-38.3621649899999
108,SANDRINGHAM HOSPITAL,PUBLIC HOSPITAL,193 BLUFF ROAD,SANDRINGHAM,VIC,3191,145.01814697,-37.96104546
109,CAULFIELD HOSPITAL,PUBLIC HOSPITAL,260-294 KOOYONG ROAD,CAULFIELD,VIC,3162,145.01689096,-37.88271788
110,KOOWEERUP REGIONAL HEALTH SERVICE,PUBLIC HOSPITAL,215 ROSSITER ROAD,KOO WEE RUP,VIC,3981,145.48444123,-38.2007591
111,KINGSTON CENTRE,PUBLIC HOSPITAL,400 WARRIGAL ROAD,CHELTENHAM,VIC,3192,145.07894584,-37.9550070999999
112,DANDENONG HOSPITAL,PUBLIC HOSPITAL,105-135 DAVID STREET,DANDENONG,VIC,3175,145.21851214,-37.97644494
113,CRANBOURNE INTEGRATED CARE CENTRE,PUBLIC HOSPITAL,140-154 SLADEN STREET,CRANBOURNE,VIC,3977,145.280814,-38.1133149199999
114,CALVARY HEALTH CARE BETHLEHEM,PUBLIC HOSPITAL,476 KOOYONG ROAD,CAULFIELD SOUTH,VIC,3162,145.01351128,-37.89718225
115,THE QUEEN ELIZABETH CENTRE,PUBLIC HOSPITAL,53 THOMAS STREET,NOBLE PARK,VIC,3174,145.1782812,-37.97204399
116,CASEY HOSPITAL,PUBLIC HOSPITAL,62-70 KANGAN DRIVE,BERWICK,VIC,3806,145.34768752,-38.0450692599999
117,MATER ADULT HOSPITAL,PUBLIC HOSPITAL,RAYMOND TERRACE,SOUTH BRISBANE,QLD,4101,153.02825045,-27.48541576
118,MATER MOTHER'S HOSPITAL,PUBLIC HOSPITAL,RAYMOND TERRACE,SOUTH BRISBANE,QLD,4101,153.02759305,-27.48565537
119,THE PRINCE CHARLES HOSPITAL,PUBLIC HOSPITAL,627 RODE ROAD,CHERMSIDE,QLD,4032,153.02195884,-27.39047994
120,PRINCESS ALEXANDRA HOSPITAL,PUBLIC HOSPITAL,199 IPSWICH ROAD,WOOLLOONGABBA,QLD,4102,153.0337795,-27.4993004999999
121,IPSWICH HOSPITAL,PUBLIC HOSPITAL,7 CHELMSFORD AVENUE,IPSWICH,QLD,4305,152.75930665,-27.6194537599999
122,REDCLIFFE HOSPITAL,PUBLIC HOSPITAL,ANZAC AVENUE,REDCLIFFE,QLD,4020,153.10444141,-27.2279400799999
123,ELLEN BARRON FAMILY CENTRE,PUBLIC HOSPITAL,526 HAMILTON ROAD,CHERMSIDE,QLD,4032,153.02514986,-27.3858913999999
124,QUEEN ELIZABETH II JUBILEE HOSPITAL,PUBLIC HOSPITAL,CNR KESSELS & TROUGHON ROADS,COOPERS PLAINS,QLD,4108,153.04884573,-27.5596668599999
125,REDLAND HOSPITAL,PUBLIC HOSPITAL,21 WEIPPIN STREET,CLEVELAND,QLD,4163,153.25211952,-27.5402833599999
126,LOGAN HOSPITAL,PUBLIC HOSPITAL,8 ARMSTRONG STREET,MEADOWBROOK,QLD,4131,153.14188747,-27.6699418499999
127,CABOOLTURE HOSPITAL,PUBLIC HOSPITAL,20 DUNCAN STREET,CABOOLTURE,QLD,4510,152.96361627,-27.0807703099999
128,BEAUDESERT HOSPITAL,PUBLIC HOSPITAL,64 TINA STREET,BEAUDESERT,QLD,4285,153.00253212,-27.98486386
129,BOONAH HOSPITAL,PUBLIC HOSPITAL,11-17 LEONARD STREET,BOONAH,QLD,4310,152.67893543,-27.99911808
130,CALOUNDRA HOSPITAL,PUBLIC HOSPITAL,WEST TERRACE,CALOUNDRA,QLD,4551,153.11973859,-26.80058494
131,ESK HOSPITAL,PUBLIC HOSPITAL,30 HIGHLAND STREET,ESK,QLD,4312,152.41806904,-27.24004797
132,GATTON HOSPITAL,PUBLIC HOSPITAL,97-103 WILLIAM STREET,GATTON,QLD,4343,152.27626604,-27.5667645899999
133,KILCOY HOSPITAL,PUBLIC HOSPITAL,19 BROWN STREET,KILCOY,QLD,4515,152.56149774,-26.9410065
134,LAIDLEY HOSPITAL,PUBLIC HOSPITAL,75 WILLIAM STREET,LAIDLEY,QLD,4341,152.40001053,-27.6327163999999
135,MALENY HOSPITAL,PUBLIC HOSPITAL,17 BEAN STREET,MALENY,QLD,4552,152.84489598,-26.7548399
136,NAMBOUR GENERAL HOSPITAL,PUBLIC HOSPITAL,HOSPITAL ROAD,NAMBOUR,QLD,4560,152.95225031,-26.6216593999999
137,BIGGENDEN MULTIPURPOSE HEALTH SERVICE,PUBLIC HOSPITAL,57 ALICE STREET,BIGGENDEN,QLD,4621,152.0509279,-25.5058012
138,BUNDABERG HOSPITAL,PUBLIC HOSPITAL,271 -275 BOURBONG STREET,BUNDABERG,QLD,4670,152.33576518,-24.86929613
139,CHERBOURG HOSPITAL,PUBLIC HOSPITAL,FISHER STREET,CHERBOURG,QLD,4605,151.95631168,-26.29151138
140,CHILDERS MULTIPURPOSE HEALTH SERVICE,PUBLIC HOSPITAL,44 BROADHURST STREET,CHILDERS,QLD,4660,152.27328209,-25.23942062
141,EIDSVOLD MULTIPURPOSE HEALTH SERVICE,PUBLIC HOSPITAL,CRACOW ROAD,EIDSVOLD,QLD,4627,151.12579636,-25.38259435
142,GAYNDAH HOSPITAL,PUBLIC HOSPITAL,69 WARTON STREET,GAYNDAH,QLD,4625,151.60453116,-25.63138214
143,GIN GIN HOSPITAL,PUBLIC HOSPITAL,5 KING STREET,GIN GIN,QLD,4671,151.9539362,-24.98617882
144,GYMPIE HOSPITAL,PUBLIC HOSPITAL,12 HENRY STREET,GYMPIE,QLD,4570,152.65831852,-26.18419191
145,HERVEY BAY HOSPITAL,PUBLIC HOSPITAL,CNR NISSEN STREET AND URAWEEN ROADS,PIALBA,QLD,4655,152.82084883,-25.29843999
146,KINGAROY HOSPITAL & COMMUNITY HEALTH CENTRE,PUBLIC HOSPITAL,166 YOUNGMAN STREET,KINGAROY,QLD,4610,151.8382953,-26.53244869
147,MARYBOROUGH HOSPITAL,PUBLIC HOSPITAL,185 WALKER STREET,MARYBOROUGH,QLD,4650,152.68986419,-25.52212836
148,MONTO HOSPITAL,PUBLIC HOSPITAL,35 FLINDERS STREET,MONTO,QLD,4630,151.11266909,-24.86643873
149,MUNDUBBERA MULTI-PURPOSE HEALTH SERVICE,PUBLIC HOSPITAL,96 LEICHHARDT STREET,MUNDUBBERA,QLD,4626,151.29327174,-25.58761659
150,MURGON HOSPITAL,PUBLIC HOSPITAL,CORONATION DRIVE,MURGON,QLD,4605,151.95070191,-26.2390691599999
151,NANANGO HOSPITAL,PUBLIC HOSPITAL,135 BRISBANE STREET,NANANGO,QLD,4615,152.00763541,-26.66651898
152,WONDAI HOSPITAL,PUBLIC HOSPITAL,BRAMSTON STREET,WONDAI,QLD,4606,151.87865955,-26.3233288
153,CHINCHILLA HOSPITAL,PUBLIC HOSPITAL,59 SLESSAR STREET,CHINCHILLA,QLD,4413,150.63494252,-26.7413285
154,DALBY HOSPITAL HEALTH SERVICE,PUBLIC HOSPITAL,HOSPITAL ROAD,DALBY,QLD,4405,151.27889805,-27.1671534
155,GOONDIWINDI HOSPITAL,PUBLIC HOSPITAL,BOWEN STREET,GOONDIWINDI,QLD,4390,150.30230427,-28.54795388
156,INGLEWOOD MULTIPURPOSE HEALTH SERVICE,PUBLIC HOSPITAL,CUNNINGHAM HIGHWAY,INGLEWOOD,QLD,4387,151.06185787,-28.41764354
157,JANDOWAE HOSPITAL,PUBLIC HOSPITAL,13 DALBY STREET,JANDOWAE,QLD,4410,151.10530714,-26.78101178
158,MILES HOSPITAL,PUBLIC HOSPITAL,5-11 COLAMBA STREET,MILES,QLD,4415,150.19150769,-26.65799505
159,MILLMERRAN HOSPITAL,PUBLIC HOSPITAL,50 COMMENS STREET,MILLMERRAN,QLD,4357,151.26287975,-27.87880544
160,OAKEY HOSPITAL,PUBLIC HOSPITAL,5 BEALE STREET,OAKEY,QLD,4401,151.71908744,-27.4240713299999
161,STANTHORPE HOSPITAL,PUBLIC HOSPITAL,8 MCGREGOR TERRACE,STANTHORPE,QLD,4380,151.92839658,-28.6609238099999
162,TARA HOSPITAL,PUBLIC HOSPITAL,15 BILTON STREET,TARA,QLD,4421,150.45636517,-27.27367635
163,TAROOM HOSPITAL,PUBLIC HOSPITAL,MILLER STREET,TAROOM,QLD,4420,149.79867059,-25.6388148199999
164,TEXAS HOSPITAL MULTIPURPOSE HEALTH SERVICE,PUBLIC HOSPITAL,MINGOOLA ROAD,TEXAS,QLD,4385,151.17948071,-28.8559724899999
165,TOOWOOMBA HOSPITAL,PUBLIC HOSPITAL,PECHEY STREET,TOOWOOMBA,QLD,4350,151.94440386,-27.5698748299999
166,WARWICK HOSPITAL,PUBLIC HOSPITAL,56 LOCKE STREET,WARWICK,QLD,4370,152.01798476,-28.22426867
167,AUGATHELLA HOSPITAL,PUBLIC HOSPITAL,CAVANAGH STREET,AUGATHELLA,QLD,4477,146.59044407,-25.79574702
168,CHARLEVILLE HOSPITAL,PUBLIC HOSPITAL,72 KING STREET,CHARLEVILLE,QLD,4470,146.23869561,-26.41114777
169,CUNNAMULLA HOSPITAL,PUBLIC HOSPITAL,56 WICKS STREET,CUNNAMULLA,QLD,4490,145.69034347,-28.07081699
170,DIRRANBANDI HOSPITAL,PUBLIC HOSPITAL,CNR JANE & COWILDI STREETS,DIRRANBANDI,QLD,4486,148.22914812,-28.57934611
171,INJUNE HOSPITAL,PUBLIC HOSPITAL,FIFTH AVENUE,INJUNE,QLD,4454,148.56282996,-25.84702042
172,MITCHELL HOSPITAL,PUBLIC HOSPITAL,95 ANN STREET,MITCHELL,QLD,4465,147.97221837,-26.4900582299999
173,MUNGINDI HOSPITAL,PUBLIC HOSPITAL,80 -84 BARWON STREET,MUNGINDI,QLD,2406,148.98906339,-28.9728069399999
174,QUILPIE HOSPITAL,PUBLIC HOSPITAL,30 GYRICA STREET,QUILPIE,QLD,4480,144.27461659,-26.61652119
175,ROMA HOSPITAL,PUBLIC HOSPITAL,197-234 MCDOWALL STREET,ROMA,QLD,4455,148.77433096,-26.56891009
176,ST GEORGE HOSPITAL (QLD),PUBLIC HOSPITAL,VICTORIA STREET,ST GEORGE,QLD,4487,148.59267821,-28.02719818
177,SURAT HOSPITAL,PUBLIC HOSPITAL,LOT 73 IVAN STREET,SURAT,QLD,4417,149.06390164,-27.15639837
178,ALPHA HOSPITAL,PUBLIC HOSPITAL,1 BURNS STREET,ALPHA,QLD,4724,146.63315143,-23.64910535
179,BARALABA HOSPITAL,PUBLIC HOSPITAL,STOPFORD STREET,BARALABA,QLD,4702,149.80957495,-24.1842672499999
180,BILOELA HOSPITAL,PUBLIC HOSPITAL,2 HOSPITAL ROAD,BILOELA,QLD,4715,150.51766886,-24.39604987
181,BLACKWATER HOSPITAL,PUBLIC HOSPITAL,41 MACKENZIE STREET,BLACKWATER,QLD,4717,148.87821903,-23.57186315
182,EMERALD HOSPITAL,PUBLIC HOSPITAL,69 HOSPITAL ROAD,EMERALD,QLD,4720,148.15490524,-23.51533896
183,GLADSTONE HOSPITAL,PUBLIC HOSPITAL,PARK STREET,GLADSTONE,QLD,4680,151.24852787,-23.85065259
184,MOUNT MORGAN HOSPITAL,PUBLIC HOSPITAL,BLACK STREET,MOUNT MORGAN,QLD,4714,150.39263619,-23.6450888799999
185,MOURA HOSPITAL,PUBLIC HOSPITAL,14 NOTT STREET,MOURA,QLD,4718,149.97633785,-24.5761302399999
186,ROCKHAMPTON BASE HOSPITAL,PUBLIC HOSPITAL,8 CANNING STREET,ROCKHAMPTON,QLD,4700,150.49454139,-23.3795234
187,SPRINGSURE HOSPITAL,PUBLIC HOSPITAL,21 WOODBINE STREET,SPRINGSURE,QLD,4722,148.0849336,-24.1200329
188,THEODORE HOSPITAL,PUBLIC HOSPITAL,85 THE BOULEVARD,THEODORE,QLD,4719,150.07527221,-24.94310638
189,CAPRICORN COAST HOSPITAL AND HEALTH SERVICE,PUBLIC HOSPITAL,8 HOSKYN DRIVE,YEPPOON,QLD,4703,150.7334582,-23.14358284
190,WOORABINDA HOSPITAL,PUBLIC HOSPITAL,1 MUNNS DRIVE,WOORABINDA,QLD,4702,149.45510837,-24.1334522
191,BARCALDINE HOSPITAL,PUBLIC HOSPITAL,OAK STREET,BARCALDINE,QLD,4725,145.29366755,-23.55331582
192,BLACKALL HOSPITAL,PUBLIC HOSPITAL,SHAMROCK STREET,BLACKALL,QLD,4472,145.44953168,-24.4226201
193,LONGREACH HOSPITAL,PUBLIC HOSPITAL,JABIRU STREET,LONGREACH,QLD,4730,144.26087624,-23.43903118
194,WINTON HOSPITAL,PUBLIC HOSPITAL,BLOOMFIELD STREET,WINTON,QLD,4735,143.04066236,-22.3815135099999
195,CLERMONT MULTI-PURPOSE HEALTH SERVICE,PUBLIC HOSPITAL,24 FRANCIS STREET,CLERMONT,QLD,4721,147.63218803,-22.8262184399999
196,MACKAY BASE HOSPITAL,PUBLIC HOSPITAL,475 BRIDGE ROAD,MACKAY,QLD,4740,149.15520543,-21.14677733
197,MORANBAH HOSPITAL,PUBLIC HOSPITAL,CNR ELLIOTT STREET AND MILLS AVENUE,MORANBAH,QLD,4744,148.05528256,-22.0021163399999
198,PROSERPINE HOSPITAL,PUBLIC HOSPITAL,26-32 TAYLOR STREET,PROSERPINE,QLD,4800,148.5849767,-20.4000151
199,SARINA HOSPITAL,PUBLIC HOSPITAL,1 HOSPITAL STREET,SARINA,QLD,4737,149.21009741,-21.42113368
200,DYSART HOSPITAL,PUBLIC HOSPITAL,QUEEN ELIZABETH DRIVE,DYSART,QLD,4745,148.35305886,-22.58272921
201,AYR HOSPITAL,PUBLIC HOSPITAL,2 CHIPPENDALE STREET,AYR,QLD,4807,147.40881792,-19.56405046
202,BOWEN HOSPITAL,PUBLIC HOSPITAL,GREGORY STREET,BOWEN,QLD,4805,148.24032688,-20.00707964
203,CHARTERS TOWERS HOSPITAL,PUBLIC HOSPITAL,137-139 GILL STREET,CHARTERS TOWERS,QLD,4820,146.26409503,-20.07616696
204,COLLINSVILLE MULTI-PURPOSE HEALTH SERVICE,PUBLIC HOSPITAL,81-91 GARRICK STREET,COLLINSVILLE,QLD,4804,147.83839828,-20.5460360399999
205,HOME HILL HOSPITAL,PUBLIC HOSPITAL,EIGHTH AVENUE,HOME HILL,QLD,4806,147.4167534,-19.6617550199999
206,INGHAM HOSPITAL,PUBLIC HOSPITAL,2-16 MCILWRAITH STREET,INGHAM,QLD,4850,146.16375806,-18.6525804299999
207,JOYCE PALMER HEALTH SERVICE,PUBLIC HOSPITAL,BEACH ROAD,PALM ISLAND,QLD,4816,146.57873503,-18.73272759
208,TOWNSVILLE UNIVERSITY HOSPITAL,PUBLIC HOSPITAL,100 ANGUS SMITH DRIVE,DOUGLAS,QLD,4814,146.7620399,-19.32050235
209,ROYAL BRISBANE & WOMENS HOSPITAL,PUBLIC HOSPITAL,BUTTERFIELD STREET,HERSTON,QLD,4029,153.02788503,-27.44696605
210,ATHERTON HOSPITAL,PUBLIC HOSPITAL,CNR LOUISE & JACK STREETS,ATHERTON,QLD,4883,145.48322182,-17.26633082
211,BABINDA HOSPITAL,PUBLIC HOSPITAL,128 MUNRO STREET,BABINDA,QLD,4861,145.91868767,-17.34322603
212,BAMAGA HOSPITAL,PUBLIC HOSPITAL,238 SAGAUKAZ STREET,BAMAGA,QLD,4876,142.38511876,-10.89400152
213,CAIRNS BASE HOSPITAL,PUBLIC HOSPITAL,165 THE ESPLANADE,CAIRNS,QLD,4870,145.76837152,-16.91209595
214,COOKTOWN HOSPITAL,PUBLIC HOSPITAL,48 HOPE STREET,COOKTOWN,QLD,4895,145.24961139,-15.47806879
215,GORDONVALE HOSPITAL,PUBLIC HOSPITAL,1-11 HIGHLEIGH ROAD,GORDONVALE,QLD,4865,145.7862333,-17.08715754
216,HERBERTON HOSPITAL,PUBLIC HOSPITAL,23 GRACE STREET,HERBERTON,QLD,4887,145.38047263,-17.3802812
217,INNISFAIL HOSPITAL,PUBLIC HOSPITAL,87 RANKIN STREET,INNISFAIL,QLD,4860,146.03004886,-17.5189371499999
218,MAREEBA HOSPITAL,PUBLIC HOSPITAL,21 LLOYD STREET,MAREEBA,QLD,4880,145.4244672,-16.98712054
219,MOSSMAN HOSPITAL (DOUGLAS SHIRE MULTI PURPOSE HEALTH SERVICE),PUBLIC HOSPITAL,9 HOSPITAL STREET,MOSSMAN,QLD,4873,145.36813239,-16.4640949999999
220,THURSDAY ISLAND HOSPITAL,PUBLIC HOSPITAL,93 VICTORIA PARADE,THURSDAY ISLAND,QLD,4875,142.2104509,-10.5881328099999
221,TULLY HOSPITAL,PUBLIC HOSPITAL,17 BRYANT STREET,TULLY,QLD,4854,145.92368391,-17.92735463
222,WEIPA HOSPITAL,PUBLIC HOSPITAL,LOT 407 JOHN EVANS DRIVE,WEIPA,QLD,4874,141.86693109,-12.64101392
223,CLONCURRY MULTI-PURPOSE HEALTH SERVICE,PUBLIC HOSPITAL,1 MUSGRAVE STREET,CLONCURRY,QLD,4824,140.52756929,-20.70415158
224,HUGHENDEN HOSPITAL,PUBLIC HOSPITAL,12 RICHMOND HILL DRIVE,HUGHENDEN,QLD,4821,144.18787882,-20.84318389
225,JULIA CREEK MULTI-PURPOSE HEATH SERVICE,PUBLIC HOSPITAL,1 BURKE STREET,JULIA CREEK,QLD,4823,141.74990082,-20.65643456
226,MOUNT ISA HOSPITAL,PUBLIC HOSPITAL,30 CAMOOWEAL STREET,MOUNT ISA,QLD,4825,139.49381542,-20.7309064
227,NORMANTON HOSPITAL,PUBLIC HOSPITAL,LOT 199 BROWN STREET,NORMANTON,QLD,4890,141.08641776,-17.6787328899999
228,RICHMOND HOSPITAL,PUBLIC HOSPITAL,GALLAGHER DRIVE,RICHMOND,QLD,4822,143.15046463,-20.7387254399999
229,MORNINGTON ISLAND HOSPITAL,PUBLIC HOSPITAL,306 LARDYL STREET,MORNINGTON ISLAND,QLD,4871,139.1808556,-16.6646447599999
230,DOOMADGEE HOSPITAL,PUBLIC HOSPITAL,SHARPE STREET,DOOMADGEE,QLD,4830,138.82872713,-17.94249016
231,BAILLIE HENDERSON HOSPITAL,PUBLIC HOSPITAL,CNR HOGG & TOR STREETS,TOOWOOMBA,QLD,4350,151.93628602,-27.5243729499999
232,KIRWAN REHABILITATION UNIT,PUBLIC HOSPITAL,138 THURINGOWA DRIVE,KIRWAN,QLD,4817,146.73325426,-19.30419899
233,KING EDWARD MEMORIAL HOSPITAL,PUBLIC HOSPITAL,374 BAGOT ROAD,SUBIACO,WA,6008,115.8185958,-31.950081
234,SIR CHARLES GAIRDNER HOSPITAL,PUBLIC HOSPITAL,HOSPITAL AVENUE,NEDLANDS,WA,6009,115.81546892,-31.9682861599999
235,OSBORNE PARK HOSPITAL,PUBLIC HOSPITAL,OSBORNE PLACE,STIRLING,WA,6021,115.80472617,-31.8859746599999
236,KALAMUNDA HOSPITAL,PUBLIC HOSPITAL,ELIZABETH STREET,KALAMUNDA,WA,6076,116.06026659,-31.9664575199999
237,JOONDALUP HEALTH CAMPUS - PUBLIC,PUBLIC HOSPITAL,SHENTON AVENUE,JOONDALUP,WA,6027,115.77173051,-31.73879384
238,ROYAL PERTH HOSPITAL,PUBLIC HOSPITAL,WELLINGTON STREET,PERTH,WA,6000,115.8663139,-31.95424273
239,FREMANTLE HOSPITAL AND HEALTH SERVICE,PUBLIC HOSPITAL,ALMA STREET,FREMANTLE,WA,6160,115.75144597,-32.05826941
240,ARMADALE KELMSCOTT MEMORIAL HOSPITAL,PUBLIC HOSPITAL,3056 ALBANY HIGHWAY,MOUNT NASURA,WA,6112,116.02001575,-32.1332035099999
241,BENTLEY HEALTH SERVICE,PUBLIC HOSPITAL,18-56 MILLS STREET,BENTLEY,WA,6102,115.92791863,-32.00532234
242,ROCKINGHAM GENERAL HOSPITAL,PUBLIC HOSPITAL,ELANORA DRIVE,COOLOONGUP,WA,6168,115.77089718,-32.29135121
243,MURRAY DISTRICT HOSPITAL,PUBLIC HOSPITAL,MCKAY STREET,PINJARRA,WA,6208,115.87158453,-32.63970117
244,PEEL HEALTH CAMPUS - PUBLIC,PUBLIC HOSPITAL,110 LAKES ROAD,MANDURAH,WA,6210,115.76350563,-32.53256791
245,FITZROY CROSSING HOSPITAL,PUBLIC HOSPITAL,FALLON ROAD,FITZROY CROSSING,WA,6765,125.56276282,-18.19143108
246,HALLS CREEK HOSPITAL,PUBLIC HOSPITAL,70 ROBERTA AVENUE,HALLS CREEK,WA,6770,127.66604723,-18.2260109499999
247,BROOME HOSPITAL,PUBLIC HOSPITAL,ROBINSON STREET,BROOME,WA,6725,122.23629558,-17.9609632899999
248,DERBY HOSPITAL,PUBLIC HOSPITAL,CLARENDON STREET,DERBY,WA,6728,123.63290971,-17.30635603
249,WYNDHAM HOSPITAL,PUBLIC HOSPITAL,MINDEROO STREET,WYNDHAM,WA,6740,128.1277716,-15.4777875999999
250,KUNUNURRA HOSPITAL,PUBLIC HOSPITAL,11 COOLIBAH DRIVE,KUNUNURRA,WA,6743,128.73423892,-15.77540713
251,ONSLOW HEALTH SERVICE,PUBLIC HOSPITAL,SECOND AVENUE,ONSLOW,WA,6710,115.11538234,-21.6432306199999
252,HEDLAND HEALTH CAMPUS,PUBLIC HOSPITAL,2-24 COLEBATCH WAY,SOUTH HEDLAND,WA,6722,118.59817902,-20.4135426999999
253,ROEBOURNE HOSPITAL,PUBLIC HOSPITAL,42-44 HAMPTON STREET,ROEBOURNE,WA,6718,117.14396331,-20.7763174099999
254,TOM PRICE HOSPITAL,PUBLIC HOSPITAL,862 MINE ROAD,TOM PRICE,WA,6751,117.79027358,-22.6953647
255,NEWMAN HOSPITAL,PUBLIC HOSPITAL,54 MINDARRA DRIVE,NEWMAN,WA,6753,119.73650523,-23.35480884
256,PARABURDOO HOSPITAL,PUBLIC HOSPITAL,LOT 608 ROCKLEA ROAD,PARABURDOO,WA,6754,117.67062459,-23.20303272
257,CARNARVON HOSPITAL,PUBLIC HOSPITAL,CLEAVER STREET,CARNARVON,WA,6701,113.65899556,-24.88658265
258,EXMOUTH HOSPITAL,PUBLIC HOSPITAL,LYONS STREET,EXMOUTH,WA,6707,114.11987514,-21.9282783099999
259,GERALDTON HOSPITAL,PUBLIC HOSPITAL,51-85 SHENTON STREET,GERALDTON,WA,6530,114.61083309,-28.78279766
260,MEEKATHARRA HOSPITAL,PUBLIC HOSPITAL,SAVAGE STREET,MEEKATHARRA,WA,6642,118.4918653,-26.5913607599999
261,MORAWA HOSPITAL,PUBLIC HOSPITAL,CAULFIELD ROAD,MORAWA,WA,6623,116.00453782,-29.21289866
262,MULLEWA HOSPITAL,PUBLIC HOSPITAL,ELDER STREET,MULLEWA,WA,6630,115.51001304,-28.5359851599999
263,NORTHAMPTON HOSPITAL,PUBLIC HOSPITAL,STEPHEN STREET,NORTHAMPTON,WA,6535,114.63511654,-28.35119873
264,NORTH MIDLANDS HOSPITAL,PUBLIC HOSPITAL,THOMAS STREET,THREE SPRINGS,WA,6519,115.75921686,-29.53451475
265,KALBARRI HEALTH SERVICE,PUBLIC HOSPITAL,KAIBER STREET,KALBARRI,WA,6536,114.16157444,-27.7128387999999
266,DONGARA MULTI-PURPOSE HEALTH CENTRE,PUBLIC HOSPITAL,48 BLENHEIM ROAD,DONGARA,WA,6525,114.93415978,-29.26517387
267,LAKE GRACE HOSPITAL,PUBLIC HOSPITAL,STUBBS STREET,LAKE GRACE,WA,6353,118.45264965,-33.10252151
268,MERREDIN HOSPITAL,PUBLIC HOSPITAL,KITCHENER ROAD,MERREDIN,WA,6415,118.27649728,-31.48520107
269,NARROGIN HOSPITAL,PUBLIC HOSPITAL,WILLIAMS ROAD,NARROGIN,WA,6312,117.16854166,-32.93659803
270,NORTHAM HOSPITAL,PUBLIC HOSPITAL,ROBINSON STREET,NORTHAM,WA,6401,116.65767822,-31.6495570499999
271,WAGIN HOSPITAL,PUBLIC HOSPITAL,WARWICK STREET,WAGIN,WA,6315,117.34731417,-33.30466589
272,YORK HOSPITAL,PUBLIC HOSPITAL,TREWS ROAD,YORK,WA,6302,116.75741658,-31.8943914399999
273,BEVERLEY HOSPITAL,PUBLIC HOSPITAL,SEWELL STREET,BEVERLEY,WA,6304,116.92258987,-32.1028454799999
274,BODDINGTON HOSPITAL,PUBLIC HOSPITAL,46-53 HOTHAM AVENUE,BODDINGTON,WA,6390,116.47577308,-32.8037003599999
275,BRUCE ROCK MEMORIAL HOSPITAL,PUBLIC HOSPITAL,35 DUNSTALL STREET,BRUCE ROCK,WA,6418,118.14650061,-31.87312944
276,CORRIGIN HOSPITAL,PUBLIC HOSPITAL,49 KIRKWOOD STREET,CORRIGIN,WA,6375,117.87882655,-32.3244158799999
277,DALWALLINU HOSPITAL,PUBLIC HOSPITAL,MYERS STREET,DALWALLINU,WA,6609,116.65654742,-30.27722088
278,KELLERBERRIN MEMORIAL HOSPITAL,PUBLIC HOSPITAL,51-63 GREGORY STREET,KELLERBERRIN,WA,6410,117.7172677,-31.62877738
279,GOOMALLING HOSPITAL,PUBLIC HOSPITAL,FORREST STREET,GOOMALLING,WA,6460,116.83110476,-31.30392818
280,KONDININ HOSPITAL,PUBLIC HOSPITAL,130 GRAHAM STREET,KONDININ,WA,6367,118.26569407,-32.48896867
281,KUNUNOPPIN HOSPITAL,PUBLIC HOSPITAL,LEAKE STREET,KUNUNOPPIN,WA,6489,117.9228868,-31.1096767499999
282,MOORA HOSPITAL,PUBLIC HOSPITAL,DANDARAGAN ROAD,MOORA,WA,6510,116.00112431,-30.63955354
283,NAREMBEEN HOSPITAL,PUBLIC HOSPITAL,ADA STREET,NAREMBEEN,WA,6369,118.39115786,-32.06171452
284,SOUTHERN CROSS HOSPITAL,PUBLIC HOSPITAL,COOLGARDIE ROAD (GREAT EASTERN HIGHWAY),SOUTHERN CROSS,WA,6426,119.33782486,-31.23070946
285,WONGAN HILLS HOSPITAL,PUBLIC HOSPITAL,ACKLAND STREET,WONGAN HILLS,WA,6603,116.72488365,-30.8939569999999
286,WYALKATCHEM HOSPITAL,PUBLIC HOSPITAL,HONOUR AVENUE,WYALKATCHEM,WA,6485,117.38620978,-31.1762432199999
287,QUAIRADING HOSPITAL,PUBLIC HOSPITAL,HARRIS STREET,QUAIRADING,WA,6383,117.40259675,-32.01422158
288,ESPERANCE HOSPITAL,PUBLIC HOSPITAL,HICKS STREET,ESPERANCE,WA,6450,121.8922075,-33.85618254
289,KALGOORLIE HEALTH CAMPUS,PUBLIC HOSPITAL,PICCADILLY STREET,KALGOORLIE,WA,6430,121.47012223,-30.74083804
290,LAVERTON HOSPITAL,PUBLIC HOSPITAL,2 BERIA ROAD,LAVERTON,WA,6440,122.39987025,-28.62682111
291,LEONORA HOSPITAL,PUBLIC HOSPITAL,SADIE CANNING DRIVE,LEONORA,WA,6438,121.33749727,-28.89431618
292,NORSEMAN HOSPITAL,PUBLIC HOSPITAL,TALBOT STREET,NORSEMAN,WA,6443,121.76715591,-32.19960487
293,RAVENSTHORPE HOSPITAL,PUBLIC HOSPITAL,MARTIN STREET,RAVENSTHORPE,WA,6346,120.04546197,-33.5849121699999
294,ALBANY HOSPITAL,PUBLIC HOSPITAL,WARDEN AVENUE,ALBANY,WA,6330,117.90446378,-35.0034113999999
295,DENMARK HOSPITAL,PUBLIC HOSPITAL,STRICKLAND STREET,DENMARK,WA,6333,117.35348441,-34.9579712899999
296,KATANNING HOSPITAL,PUBLIC HOSPITAL,CLIVE STREET,KATANNING,WA,6317,117.56341407,-33.6830288099999
297,GNOWANGERUP HOSPITAL,PUBLIC HOSPITAL,YOUGENUP ROAD,GNOWANGERUP,WA,6335,118.00292762,-33.9304653799999
298,PLANTAGENET HOSPITAL,PUBLIC HOSPITAL,LANGTON ROAD,MOUNT BARKER,WA,6324,117.65456091,-34.62609172
299,KOJONUP HOSPITAL,PUBLIC HOSPITAL,SPRING STREET,KOJONUP,WA,6395,117.153413,-33.82929795
300,AUGUSTA HOSPITAL,PUBLIC HOSPITAL,DONOVAN STREET,AUGUSTA,WA,6290,115.15809961,-34.30597698
301,BUNBURY HOSPITAL,PUBLIC HOSPITAL,CNR ROBERTSON DRIVE & BUSSELL HIGHWAY,BUNBURY,WA,6230,115.64818593,-33.3669886499999
302,BUSSELTON HOSPITAL,PUBLIC HOSPITAL,MILL ROAD,BUSSELTON,WA,6280,115.32046235,-33.6545849
303,COLLIE DISTRICT HOSPITAL,PUBLIC HOSPITAL,CNR STEERE & DEAKIN STREETS,COLLIE,WA,6225,116.16223074,-33.3513857299999
304,MARGARET RIVER HOSPITAL,PUBLIC HOSPITAL,FARRELLY STREET,MARGARET RIVER,WA,6285,115.07123013,-33.95215868
305,DONNYBROOK HOSPITAL,PUBLIC HOSPITAL,BENTLEY STREET,DONNYBROOK,WA,6239,115.8169838,-33.5764157
306,HARVEY DISTRICT HOSPITAL,PUBLIC HOSPITAL,45 HAYWARD STREET,HARVEY,WA,6220,115.89675095,-33.07754533
307,NANNUP HOSPITAL,PUBLIC HOSPITAL,CAREY STREET,NANNUP,WA,6275,115.76723638,-33.98279653
308,PEMBERTON HOSPITAL,PUBLIC HOSPITAL,RAILWAY CRESENT,PEMBERTON,WA,6260,116.03157988,-34.4450804699999
309,BOYUP BROOK SOLDIERS MEMORIAL HOSPITAL,PUBLIC HOSPITAL,HOSPITAL ROAD,BOYUP BROOK,WA,6244,116.3916295,-33.83872336
310,WARREN HOSPITAL,PUBLIC HOSPITAL,HOSPITAL AVENUE,MANJIMUP,WA,6258,116.15307992,-34.2401672299999
311,BRIDGETOWN HOSPITAL,PUBLIC HOSPITAL,16-18 PENINSULA ROAD,BRIDGETOWN,WA,6255,116.13218054,-33.95167018
312,GRAYLANDS SELBY-LEMNOS & SPECIAL CARE HOSPITAL,PUBLIC HOSPITAL,BROCKWAY ROAD & 6 LEMNOS STREET,MOUNT CLAREMONT,WA,6010,115.79085443,-31.9614407399999
313,ROYAL HOBART HOSPITAL,PUBLIC HOSPITAL,48 LIVERPOOL STREET,HOBART,TAS,7000,147.32991318,-42.88000575
314,NEW NORFOLK DISTRICT HOSPITAL,PUBLIC HOSPITAL,3 RICHMOND STREET,NEW NORFOLK,TAS,7140,147.05939336,-42.78116919
315,ESPERANCE MULTI PURPOSE CENTRE,PUBLIC HOSPITAL,15 CHAPMAN AVENUE,DOVER,TAS,7117,147.01625092,-43.3146541
316,MAY SHAW HEALTH CENTRE,PUBLIC HOSPITAL,37 WELLINGTON STREET,SWANSEA,TAS,7190,148.07704945,-42.1274648999999
317,MIDLANDS MULTI PURPOSE HEALTH CENTRE,PUBLIC HOSPITAL,13 CHURCH STREET,OATLANDS,TAS,7120,147.36950326,-42.29935325
318,LAUNCESTON GENERAL HOSPITAL,PUBLIC HOSPITAL,274-280 CHARLES STREET,LAUNCESTON,TAS,7250,147.14206828,-41.44663227
319,BEACONSFIELD DISTRICT HEALTH SERVICE,PUBLIC HOSPITAL,13 BOLTON STREET,BEACONSFIELD,TAS,7270,146.80685039,-41.19367628
320,CAMPBELL TOWN HEALTH AND COMMUNITY SERVICE,PUBLIC HOSPITAL,70 HIGH STREET,CAMPBELL TOWN,TAS,7210,147.49310478,-41.9263415199999
321,NORTH EASTERN SOLDIERS MEMORIAL HOSPITAL,PUBLIC HOSPITAL,CAMERON STREET,SCOTTSDALE,TAS,7260,147.52132518,-41.1542866299999
322,ST HELENS DISTRICT HOSPITAL,PUBLIC HOSPITAL,10 ANNIE STREET,ST HELENS,TAS,7216,148.2419863,-41.3179725799999
323,ST MARYS COMMUNITY HEALTH CENTRE,PUBLIC HOSPITAL,GARDINERS CREEK ROAD,ST MARYS,TAS,7215,148.18124726,-41.5760461099999
324,TOOSEY AGED AND COMMUNITY CARE,PUBLIC HOSPITAL,10 ARCHER STREET,LONGFORD,TAS,7301,147.11954112,-41.59303777
325,FLINDERS ISLAND MULTI PURPOSE CENTRE,PUBLIC HOSPITAL,4 JAMES STREET,WHITEMARK,TAS,7255,148.01732506,-40.1213052099999
326,DELORAINE DISTRICT HOSPITAL AND COMMUNITY HEALTH SERVICES,PUBLIC HOSPITAL,EAST BARRACK STREET,DELORAINE,TAS,7304,146.6596029,-41.52803182
327,GEORGE TOWN HOSPITAL AND COMMUNITY CENTRE,PUBLIC HOSPITAL,47 ANNE STREET,GEORGE TOWN,TAS,7253,146.82147823,-41.103962
328,NORTH WEST REGIONAL HOSPITAL,PUBLIC HOSPITAL,23 BRICKPORT ROAD,BURNIE,TAS,7320,145.8811834,-41.04655217
329,KING ISLAND DISTRICT HOSPITAL AND HEALTH CENTRE,PUBLIC HOSPITAL,EDWARD STREET,CURRIE,TAS,7256,143.85879838,-39.9300305799999
330,SMITHTON DISTRICT HOSPITAL,PUBLIC HOSPITAL,74 BRITTONS ROAD,SMITHTON,TAS,7330,145.12961052,-40.8501626899999
331,WEST COAST DISTRICT HOSPITAL,PUBLIC HOSPITAL,ORR STREET,QUEENSTOWN,TAS,7467,145.55867095,-42.0813720799999
332,ROYAL DARWIN HOSPITAL,PUBLIC HOSPITAL,ROCKLANDS DRIVE,TIWI,NT,0810,130.88176517,-12.35577495
333,ALICE SPRINGS HOSPITAL,PUBLIC HOSPITAL,6 GAP ROAD,ALICE SPRINGS,NT,0870,133.87774337,-23.7062979899999
334,TENNANT CREEK HOSPITAL,PUBLIC HOSPITAL,41 SCHMIDT STREET,TENNANT CREEK,NT,0860,134.1868879,-19.64778159
335,KATHERINE HOSPITAL,PUBLIC HOSPITAL,GORGE ROAD,KATHERINE,NT,0850,132.27212423,-14.4389924399999
336,GOVE DISTRICT HOSPITAL,PUBLIC HOSPITAL,80 MATTHEW FLINDERS WAY,NHULUNBUY,NT,0880,136.77794439,-12.18638784
337,THE CANBERRA HOSPITAL,PUBLIC HOSPITAL,77 YAMBA DRIVE,GARRAN,ACT,2605,149.10120435,-35.3467333899999
338,NORTH CANBERRA HOSPITAL,PUBLIC HOSPITAL,HAYDON DRIVE,BRUCE,ACT,2617,149.08964415,-35.25331577
339,QUEEN ELIZABETH II FAMILY CENTRE,PUBLIC HOSPITAL,129 CARRUTHERS STREET,CURTIN,ACT,2605,149.07917117,-35.32328107
340,THE CHILDREN'S HOSPITAL AT WESTMEAD,PUBLIC HOSPITAL,178 HAWKESBURY ROAD,WESTMEAD,NSW,2145,150.9925014,-33.8015771899999
341,BALMAIN HOSPITAL,PUBLIC HOSPITAL,29 BOOTH STREET,BALMAIN,NSW,2041,151.18148377,-33.85948337
342,CANTERBURY HOSPITAL,PUBLIC HOSPITAL,575 CANTERBURY ROAD,CAMPSIE,NSW,2194,151.09827089,-33.91958117
343,ROYAL PRINCE ALFRED HOSPITAL,PUBLIC HOSPITAL,50 MISSENDEN ROAD,CAMPERDOWN,NSW,2050,151.18291652,-33.88924997
344,CONCORD REPATRIATION HOSPITAL,PUBLIC HOSPITAL,HOSPITAL ROAD,CONCORD,NSW,2139,151.09267159,-33.83729549
345,SYDNEY DENTAL HOSPITAL,PUBLIC HOSPITAL,2 CHALMERS STREET,SURRY HILLS,NSW,2010,151.20780607,-33.8844631699999
346,KARITANE,PUBLIC HOSPITAL,CNR BUTTON AVENUE & LYDIA STREET,CARRAMAR,NSW,2163,150.96577329,-33.8797742199999
347,CAMDEN HOSPITAL,PUBLIC HOSPITAL,65 MENANGLE ROAD,CAMDEN,NSW,2570,150.69329013,-34.06269887
348,FAIRFIELD HOSPITAL,PUBLIC HOSPITAL,340 PRAIRIE VALE ROAD,PRAIRIEWOOD,NSW,2176,150.90433084,-33.8601121299999
349,LIVERPOOL HOSPITAL,PUBLIC HOSPITAL,LOT 2 ELIZABETH STREET,LIVERPOOL,NSW,2170,150.93075753,-33.91996108
350,CAMPBELLTOWN HOSPITAL,PUBLIC HOSPITAL,THERRY ROAD,CAMPBELLTOWN,NSW,2560,150.80630009,-34.0776640399999
351,BANKSTOWN-LIDCOMBE HOSPITAL,PUBLIC HOSPITAL,68 ELDRIDGE ROAD,BANKSTOWN,NSW,2200,151.02083926,-33.9331286
352,BRAESIDE HOSPITAL,PUBLIC HOSPITAL,340 PRAIRIE VALE ROAD,PRAIRIEWOOD,NSW,2176,150.90220006,-33.8619115999999
353,BOWRAL HOSPITAL,PUBLIC HOSPITAL,150 MONA ROAD,BOWRAL,NSW,2576,150.42378534,-34.4850421099999
354,ST VINCENT'S HOSPITAL (DARLINGHURST),PUBLIC HOSPITAL,390 VICTORIA STREET,DARLINGHURST,NSW,2010,151.2207815,-33.8803412899999
355,SYDNEY HOSPITAL AND SYDNEY EYE HOSPITAL,PUBLIC HOSPITAL,8 MACQUARIE STREET,SYDNEY,NSW,2000,151.2125733,-33.8679260599999
356,CALVARY HEALTH CARE SYDNEY LTD,PUBLIC HOSPITAL,91-101 ROCKY POINT ROAD,KOGARAH,NSW,2217,151.13619487,-33.97613519
357,GOWER WILSON MULTI PURPOSE SERVICE,PUBLIC HOSPITAL,LAGOON RD,LORD HOWE ISLAND,NSW,2898,159.06784206,-31.5292024199999
358,WAR MEMORIAL HOSPITAL,PUBLIC HOSPITAL,125 BIRRELL STREET,WAVERLEY,NSW,2024,151.25381195,-33.89749297
359,PRINCE OF WALES HOSPITAL,PUBLIC HOSPITAL,320-346 BARKER STREET,RANDWICK,NSW,2031,151.2394022,-33.91765979
360,SYDNEY CHILDREN'S HOSPITAL,PUBLIC HOSPITAL,HIGH STREET,RANDWICK,NSW,2031,151.23834709,-33.9171831099999
361,ST GEORGE HOSPITAL,PUBLIC HOSPITAL,30 GRAY STREET,KOGARAH,NSW,2217,151.13386857,-33.96729067
362,THE SUTHERLAND HOSPITAL,PUBLIC HOSPITAL,430 KINGSWAY,CARINGBAH,NSW,2229,151.11515104,-34.0372888699999
363,ROYAL HOSPITAL FOR WOMEN,PUBLIC HOSPITAL,BARKER STREET,RANDWICK,NSW,2031,151.23793237,-33.91903265
364,BULLI HOSPITAL,PUBLIC HOSPITAL,29 HOSPITAL ROAD,BULLI,NSW,2516,150.90838175,-34.3357278999999
365,COLEDALE HOSPITAL,PUBLIC HOSPITAL,638 LAWRENCE HARGRAVE DRIVE,COLEDALE,NSW,2515,150.95082346,-34.2838212199999
366,KIAMA HOSPITAL AND COMMUNITY HEALTH SERVICE,PUBLIC HOSPITAL,BONAIRA STREET,KIAMA,NSW,2533,150.85050498,-34.6829364399999
367,MILTON ULLADULLA HOSPITAL,PUBLIC HOSPITAL,104-106 PRINCES HIGHWAY,MILTON,NSW,2538,150.43891105,-35.31731574
368,PORT KEMBLA HOSPITAL,PUBLIC HOSPITAL,89-91 COWPER STREET,WARRAWONG,NSW,2502,150.88084816,-34.48605055
369,SHOALHAVEN DISTRICT MEMORIAL HOSPITAL,PUBLIC HOSPITAL,2 SHOALHAVEN STREET,NOWRA,NSW,2541,150.59581866,-34.86884866
370,WOLLONGONG HOSPITAL,PUBLIC HOSPITAL,348 CROWN STREET,WOLLONGONG,NSW,2500,150.88350512,-34.42474786
371,SHELLHARBOUR HOSPITAL,PUBLIC HOSPITAL,15-17 MADIGAN BOULEVARDE,MOUNT WARRIGAL,NSW,2528,150.84093738,-34.5589829899999
372,DAVID BERRY HOSPITAL,PUBLIC HOSPITAL,85 TANNERY ROAD,BERRY,NSW,2535,150.712827,-34.77592069
373,AUBURN HOSPITAL & COMMUNITY HEALTH SERVICES,PUBLIC HOSPITAL,18-20 HARGRAVE ROAD,AUBURN,NSW,2144,151.03319581,-33.85986702
374,BLACKTOWN HOSPITAL,PUBLIC HOSPITAL,BLACKTOWN ROAD,BLACKTOWN,NSW,2148,150.91754344,-33.7755676699999
375,BLUE MOUNTAINS DISTRICT ANZAC MEMORIAL HOSPITAL,PUBLIC HOSPITAL,CNR WOODLANDS AND GREAT WESTERN HIGHWAY,KATOOMBA,NSW,2780,150.32122505,-33.7051339
376,NEPEAN HOSPITAL,PUBLIC HOSPITAL,DERBY STREET,KINGSWOOD,NSW,2747,150.71410985,-33.75969249
377,ST JOSEPH'S HOSPITAL,PUBLIC HOSPITAL,1 NORMANBY ROAD,AUBURN,NSW,2144,151.02833041,-33.8486630899999
378,SPRINGWOOD HOSPITAL,PUBLIC HOSPITAL,7 HUNTLEY GRANGE ROAD,SPRINGWOOD,NSW,2777,150.57085972,-33.69047671
379,MOUNT DRUITT HOSPITAL,PUBLIC HOSPITAL,63 RAILWAY STREET,MOUNT DRUITT,NSW,2770,150.83023954,-33.76566487
380,WESTMEAD HOSPITAL,PUBLIC HOSPITAL,166-174 DARCY ROAD,WESTMEAD,NSW,2145,150.98780968,-33.80440433
381,LITHGOW HOSPITAL,PUBLIC HOSPITAL,CNR COL DREWE DRIVE AND GREAT WESTERN HIGHWAY,LITHGOW,NSW,2790,150.12740183,-33.4985151
382,PORTLAND TABULAM HEALTH CENTRE,PUBLIC HOSPITAL,20 GREEN STREET,PORTLAND,NSW,2847,149.97880839,-33.3579918199999
383,GOSFORD HOSPITAL,PUBLIC HOSPITAL,60 HOLDEN STREET,GOSFORD,NSW,2250,151.33943285,-33.42018725
384,WOY WOY HOSPITAL,PUBLIC HOSPITAL,7-8 KATHLEEN STREET,WOY WOY,NSW,2256,151.3205386,-33.4964164899999
385,LONG JETTY COMMUNITY HEALTH CENTRE,PUBLIC HOSPITAL,64-68 WYONG ROAD,KILLARNEY VALE,NSW,2261,151.46900457,-33.3688227
386,WYONG HOSPITAL,PUBLIC HOSPITAL,664 PACIFIC HIGHWAY,HAMLYN TERRACE,NSW,2259,151.47885766,-33.2606004099999
387,GREENWICH HOSPITAL,PUBLIC HOSPITAL,97-115 RIVER ROAD,GREENWICH,NSW,2065,151.18337669,-33.82733188
388,NERINGAH HOSPITAL,PUBLIC HOSPITAL,4-12 NERINGAH AVENUE SOUTH,WAHROONGA,NSW,2076,151.11454396,-33.71785713
389,HORNSBY KU-RING-GAI HOSPITAL,PUBLIC HOSPITAL,36-76 PALMERSTON ROAD,HORNSBY,NSW,2077,151.11285521,-33.70143046
390,MANLY HOSPITAL,PUBLIC HOSPITAL,150 DARLEY ROAD,MANLY,NSW,2095,151.29439393,-33.80606224
391,MONA VALE HOSPITAL,PUBLIC HOSPITAL,81 CORONATION STREET,MONA VALE,NSW,2103,151.30684879,-33.6857763199999
392,ROYAL NORTH SHORE HOSPITAL,PUBLIC HOSPITAL,1 RESERVE ROAD,ST LEONARDS,NSW,2065,151.19115755,-33.82141182
393,ROYAL REHABILITATION HOSPITAL - COORABEL/MOORONG,PUBLIC HOSPITAL,227-259 MORRISON ROAD,RYDE,NSW,2112,151.10784992,-33.82177796
394,RYDE HOSPITAL,PUBLIC HOSPITAL,DENISTONE ROAD,EASTWOOD,NSW,2122,151.0897543,-33.7954522799999
395,ARMIDALE RURAL REFERRAL HOSPITAL,PUBLIC HOSPITAL,226 RUSDEN STREET,ARMIDALE,NSW,2350,151.655618,-30.5127250199999
396,BARRABA MULTI PURPOSE SERVICE,PUBLIC HOSPITAL,EDWARD STREET,BARRABA,NSW,2347,150.60577933,-30.38247503
397,BINGARA MULTIPURPOSE SERVICE,PUBLIC HOSPITAL,KEERA STREET,BINGARA,NSW,2404,150.57923078,-29.8640423099999
398,BOGGABRI MULTI PURPOSE SERVICE,PUBLIC HOSPITAL,3 WEE WAA STREET,BOGGABRI,NSW,2382,150.04001434,-30.71149479
399,GLEN INNES DISTRICT HOSPITAL,PUBLIC HOSPITAL,94 TAYLOR STREET,GLEN INNES,NSW,2370,151.7316632,-29.7332881
400,GUNNEDAH DISTRICT HOSPITAL,PUBLIC HOSPITAL,2 MARQUIS STREET,GUNNEDAH,NSW,2380,150.25132866,-30.9831470199999
401,GUYRA MULTI PURPOSE SERVICE,PUBLIC HOSPITAL,44-48 SOLE STREET,GUYRA,NSW,2365,151.67917452,-30.2126551599999
402,INVERELL DISTRICT HOSPITAL,PUBLIC HOSPITAL,41 SWANBROOK ROAD,INVERELL,NSW,2360,151.13054487,-29.7708193299999
403,MANILLA HEALTH SERVICE,PUBLIC HOSPITAL,112 COURT STREET,MANILLA,NSW,2346,150.73225239,-30.74570526
404,MOREE DISTRICT HOSPITAL,PUBLIC HOSPITAL,35 ALICE STREET,MOREE,NSW,2400,149.83965095,-29.4706603499999
405,NARRABRI DISTRICT HOSPITAL,PUBLIC HOSPITAL,11 CAMERON STREET,NARRABRI,NSW,2390,149.77681347,-30.32574614
406,PRINCE ALBERT TENTERFIELD,PUBLIC HOSPITAL,1-5 NAAS ST,TENTERFIELD,NSW,2372,152.01355501,-29.04508777
407,QUIRINDI COMMUNITY HOSPITAL,PUBLIC HOSPITAL,50 NOWLAND STREET,QUIRINDI,NSW,2343,150.67662563,-31.50034013
408,TAMWORTH RURAL REFERRAL HOSPITAL,PUBLIC HOSPITAL,31 DEAN STREET,NORTH TAMWORTH,NSW,2340,150.92532909,-31.07338363
409,TINGHA MULTIPURPOSE SERVICE,PUBLIC HOSPITAL,13997 GUYRA ROAD,TINGHA,NSW,2369,151.20644458,-29.95077449
410,EMMAVILLE - VEGETABLE CREEK RESIDENTIAL AGED CARE,PUBLIC HOSPITAL,13-33 GLEN INNES ROAD,EMMAVILLE,NSW,2371,151.599188,-29.45054713
411,WALCHA MULTIPURPOSE SERVICE,PUBLIC HOSPITAL,11 MIDDLE STREET,WALCHA,NSW,2354,151.59868127,-30.9865852899999
412,WARIALDA MULTIPURPOSE SERVICE,PUBLIC HOSPITAL,LONG STREET,WARIALDA,NSW,2402,150.57955164,-29.5382940499999
413,WEE WAA COMMUNITY HOSPITAL,PUBLIC HOSPITAL,60 ALMA STREET,WEE WAA,NSW,2388,149.44843473,-30.22545759
414,WERRIS CREEK COMMUNITY HOSPITAL,PUBLIC HOSPITAL,22-34 NORTH STREET,WERRIS CREEK,NSW,2341,150.65279176,-31.34722634
415,BULAHDELAH COMMUNITY HOSPITAL,PUBLIC HOSPITAL,RICHMOND STREET,BULAHDELAH,NSW,2423,152.21002429,-32.4039516199999
416,GLOUCESTER SOLDIERS MEMORIAL HOSPITAL,PUBLIC HOSPITAL,166-182 CHURCH STREET,GLOUCESTER,NSW,2422,151.95856317,-32.01478879
417,MANNING RURAL REFERRAL HOSPITAL (TAREE),PUBLIC HOSPITAL,26 YORK STREET,TAREE,NSW,2430,152.45501281,-31.91029838
418,WINGHAM COMMUNITY HOSPITAL,PUBLIC HOSPITAL,34 BUNGAY ROAD,WINGHAM,NSW,2429,152.36527476,-31.8780429
419,CESSNOCK DISTRICT HOSPITAL,PUBLIC HOSPITAL,24 VIEW STREET,CESSNOCK,NSW,2325,151.34838388,-32.82775543
420,DUNGOG COMMUNITY HOSPITAL,PUBLIC HOSPITAL,22 HOSPITAL ROAD,DUNGOG,NSW,2420,151.74616432,-32.40195596
421,KURRI KURRI DISTRICT HOSPITAL,PUBLIC HOSPITAL,432 LANG STREET,KURRI KURRI,NSW,2327,151.46300875,-32.82500956
422,MAITLAND HOSPITAL (NSW),PUBLIC HOSPITAL,51 METFORD ROAD,METFORD,NSW,2323,151.60468395,-32.75944257
423,MERRIWA MULTI PURPOSE SERVICE,PUBLIC HOSPITAL,60 MACKENZIE STREET,MERRIWA,NSW,2329,150.36131847,-32.14270984
424,MUSWELLBROOK HOSPITAL,PUBLIC HOSPITAL,36 BRENTWOOD STREET,MUSWELLBROOK,NSW,2333,150.90025864,-32.26453656
425,DENMAN MULTI PURPOSE SERVICE,PUBLIC HOSPITAL,51-53 OGILVIE STREET,DENMAN,NSW,2328,150.68445539,-32.3894807299999
426,CALVARY MATER NEWCASTLE,PUBLIC HOSPITAL,20 EDITH STREET,WARATAH,NSW,2298,151.720852,-32.8993675999999
427,BELMONT HOSPITAL,PUBLIC HOSPITAL,16 CROUDACE BAY ROAD,BELMONT,NSW,2280,151.64845649,-33.0254171
428,"SCOTT MEMORIAL HOSPITAL, SCONE",PUBLIC HOSPITAL,STAFFORD STREET,SCONE,NSW,2337,150.8768676,-32.05151978
429,SINGLETON DISTRICT HOSPITAL,PUBLIC HOSPITAL,25 DANGAR ROAD,SINGLETON,NSW,2330,151.1857261,-32.5670730799999
430,WILSON MEMORIAL COMMUNITY HOSPITAL,PUBLIC HOSPITAL,59 O'CONNELL STREET,MURRURUNDI,NSW,2338,150.83469842,-31.77031879
431,TOMAREE COMMUNITY HOSPITAL,PUBLIC HOSPITAL,2 TREVALLY STREET,NELSON BAY,NSW,2315,152.15900407,-32.7202127899999
432,JOHN HUNTER HOSPITAL ROYAL NEWCASTLE CENTRE,PUBLIC HOSPITAL,2 LOOKOUT ROAD,NEW LAMBTON HEIGHTS,NSW,2305,151.69243753,-32.9221767399999
433,BALLINA DISTRICT HOSPITAL,PUBLIC HOSPITAL,78-92 CHERRY STREET,BALLINA,NSW,2478,153.56443539,-28.86317718
434,BELLINGER RIVER DISTRICT HOSPITAL,PUBLIC HOSPITAL,43 CHURCH STREET,BELLINGEN,NSW,2454,152.89321406,-30.4572503799999
435,CORAKI CAMPBELL HEALTHONE,PUBLIC HOSPITAL,SURRY STREET,CORAKI,NSW,2471,153.2753229,-28.99380382
436,CASINO AND DISTRICT MEMORIAL HOSPITAL,PUBLIC HOSPITAL,41 HOTHAM STREET,CASINO,NSW,2470,153.03582974,-28.859836
437,BONALBO HOSPITAL,PUBLIC HOSPITAL,CLARENCE WAY,BONALBO,NSW,2469,152.62267223,-28.7340720999999
438,COFFS HARBOUR BASE HOSPITAL,PUBLIC HOSPITAL,345 PACIFIC HIGHWAY,COFFS HARBOUR,NSW,2450,153.09400331,-30.31798312
439,DORRIGO MULTI PURPOSE SERVICE,PUBLIC HOSPITAL,14 BEECH STREET,DORRIGO,NSW,2453,152.71388881,-30.3406130499999
440,GRAFTON BASE HOSPITAL,PUBLIC HOSPITAL,174 ARTHUR STREET,GRAFTON,NSW,2460,152.94126285,-29.6748218499999
441,KEMPSEY DISTRICT HOSPITAL,PUBLIC HOSPITAL,119 RIVER STREET,KEMPSEY,NSW,2440,152.82080823,-31.06775184
442,KYOGLE MEMORIAL MULTI PURPOSE SERVICE,PUBLIC HOSPITAL,199 SUMMERLAND WAY,KYOGLE,NSW,2474,153.00171899,-28.62708027
443,LISMORE BASE HOSPITAL,PUBLIC HOSPITAL,60 URALBA STREET,LISMORE,NSW,2480,153.2916938,-28.80903719
444,LISMORE BASE HOSPITAL - RIVERLANDS DRUG & ALCOHOL SERVICE,PUBLIC HOSPITAL,76 HUNTER STREET,LISMORE,NSW,2480,153.29049847,-28.809287
445,NIMBIN MULTI PURPOSE SERVICE,PUBLIC HOSPITAL,35 CULLEN STREET,NIMBIN,NSW,2480,153.223046,-28.5975660299999
446,MACKSVILLE DISTRICT HOSPITAL,PUBLIC HOSPITAL,100 DARRUYA ROAD,MACKSVILLE,NSW,2447,152.94384523,-30.6937554799999
447,MACLEAN DISTRICT HOSPITAL,PUBLIC HOSPITAL,21 UNION STREET,MACLEAN,NSW,2463,153.20109747,-29.45421185
448,MURWILLUMBAH DISTRICT HOSPITAL,PUBLIC HOSPITAL,8 EWING STREET,MURWILLUMBAH,NSW,2484,153.40038918,-28.32363967
449,TWEED VALLEY HOSPITAL,PUBLIC HOSPITAL,771 CUDGEN ROAD,CUDGEN,NSW,2487,153.5661959,-28.26380123
450,URBENVILLE HEALTH SERVICE,PUBLIC HOSPITAL,45 BEAURY STREET,URBENVILLE,NSW,2475,152.54318483,-28.47154333
451,WAUCHOPE DISTRICT MEMORIAL HOSPITAL,PUBLIC HOSPITAL,69 HIGH STREET,WAUCHOPE,NSW,2446,152.72803539,-31.45747412
452,PORT MACQUARIE BASE HOSPITAL,PUBLIC HOSPITAL,1-31 WRIGHTS ROAD,PORT MACQUARIE,NSW,2444,152.87830688,-31.45233537
453,WYALONG HOSPITAL,PUBLIC HOSPITAL,70 UNGARIE ROAD,WEST WYALONG,NSW,2671,147.1968564,-33.91648779
454,ALBURY WODONGA HEALTH - ALBURY CAMPUS,PUBLIC HOSPITAL,201 BORELLA ROAD,ALBURY,NSW,2640,146.93894035,-36.07871245
455,BARHAM KOONDROOK SOLDIERS MEMORIAL HOSPITAL,PUBLIC HOSPITAL,70 PUNT ROAD,BARHAM,NSW,2732,144.13346796,-35.62382875
456,BERRIGAN WAR MEMORIAL HOSPITAL/MULTI PURPOSE SERVICE,PUBLIC HOSPITAL,47-49 DAVIS STREET,BERRIGAN,NSW,2712,145.81217003,-35.6625989199999
457,CULCAIRN MULTI PURPOSE SERVICE HOSPITAL,PUBLIC HOSPITAL,51-55 BALFOUR STREET,CULCAIRN,NSW,2660,147.04210882,-35.66739032
458,COROWA HEALTH SERVICE,PUBLIC HOSPITAL,74 GUY STREET,COROWA,NSW,2646,146.3835378,-35.99352465
459,DENILIQUIN HOSPITAL,PUBLIC HOSPITAL,411 CHARLOTTE STREET,DENILIQUIN,NSW,2710,144.96321861,-35.52418535
460,FINLEY HOSPITAL & COMMUNITY HEALTH CARE,PUBLIC HOSPITAL,24 DAWE STREET,FINLEY,NSW,2713,145.56818389,-35.64164593
461,HENTY MULTI PURPOSE SERVICE,PUBLIC HOSPITAL,7 KEIGHRAN STREET,HENTY,NSW,2658,147.03152251,-35.5156874899999
462,HOLBROOK DISTRICT HOSPITAL,PUBLIC HOSPITAL,30 BOWLER STREET,HOLBROOK,NSW,2644,147.32027264,-35.72398556
463,JERILDERIE MULTI PURPOSE SERVICE,PUBLIC HOSPITAL,33-39 SOUTHEY STREET,JERILDERIE,NSW,2716,145.72059973,-35.35662524
464,MERCY HEALTH SERVICE,PUBLIC HOSPITAL,550 POOLE STREET,ALBURY,NSW,2640,146.91661939,-36.0692870199999
465,URANA HEALTH SERVICE,PUBLIC HOSPITAL,127-129 PRINCESS ST,URANA,NSW,2645,146.26731044,-35.32541178
466,TOCUMWAL HOSPITAL,PUBLIC HOSPITAL,ADAMS STREET,TOCUMWAL,NSW,2714,145.56899463,-35.81540353
467,TUMBARUMBA MULTI PURPOSE SERVICE,PUBLIC HOSPITAL,4 MITCHELL STREET,TUMBARUMBA,NSW,2653,148.00620457,-35.7787064999999
468,BATEMANS BAY HOSPITAL,PUBLIC HOSPITAL,7 PACIFIC STREET,BATEMANS BAY,NSW,2536,150.18213917,-35.7136968199999
469,SOUTH EAST REGIONAL HOSPITAL,PUBLIC HOSPITAL,4 VIRGINIA DRIVE,BEGA,NSW,2550,149.85855427,-36.68904352
470,BOMBALA MULTI PURPOSE SERVICE,PUBLIC HOSPITAL,126-128 WELLINGTON STREET,BOMBALA,NSW,2632,149.23500535,-36.91767435
471,BOOROWA MULTI PURPOSE SERVICE HOSPITAL,PUBLIC HOSPITAL,62-80 DRY STREET,BOOROWA,NSW,2586,148.72707504,-34.44313226
472,BRAIDWOOD MULTI PURPOSE SERVICE,PUBLIC HOSPITAL,77 MONKITTEE STREET,BRAIDWOOD,NSW,2622,149.80563758,-35.44361746
473,COOMA HOSPITAL & HEALTH SERVICE,PUBLIC HOSPITAL,2 BENT STREET,COOMA,NSW,2630,149.13015123,-36.2413744899999
474,CROOKWELL DISTRICT HOSPITAL,PUBLIC HOSPITAL,13/15 KIALLA ROAD,CROOKWELL,NSW,2583,149.46741506,-34.46421571
475,DELEGATE MULTI PURPOSE SERVICE,PUBLIC HOSPITAL,15 CRAIGIE STREET,DELEGATE,NSW,2633,148.94558019,-37.0447034599999
476,GOULBURN BASE HOSPITAL,PUBLIC HOSPITAL,130 GOLDSMITH STREET,GOULBURN,NSW,2580,149.71318444,-34.74786524
477,MERCY CARE HOSPITAL - YOUNG,PUBLIC HOSPITAL,69 DEMONDRILLE STREET,YOUNG,NSW,2594,148.28879689,-34.3211978799999
478,MORUYA DISTRICT HOSPITAL,PUBLIC HOSPITAL,2-10 RIVER STREET,MORUYA,NSW,2537,150.07077679,-35.9041380099999
479,MURRUMBAH-HARDEN HOSPITAL,PUBLIC HOSPITAL,54 SWIFT STREET,HARDEN,NSW,2587,148.36026101,-34.5558047
480,PAMBULA DISTRICT HOSPITAL,PUBLIC HOSPITAL,MERIMBOLA STREET,PAMBULA,NSW,2549,149.87923543,-36.9263129299999
481,QUEANBEYAN DISTRICT HOSPITAL,PUBLIC HOSPITAL,12 ERIN STREET,QUEANBEYAN,NSW,2620,149.23228405,-35.3476796699999
482,BOURKE STREET HEALTH SERVICE GOULBURN,PUBLIC HOSPITAL,234 BOURKE STREET,GOULBURN,NSW,2580,149.71931942,-34.7487210799999
483,YASS DISTRICT HOSPITAL,PUBLIC HOSPITAL,145-147 MEEHAN STREET,YASS,NSW,2582,148.90641942,-34.84407699
484,YOUNG DISTRICT HOSPITAL,PUBLIC HOSPITAL,68 ALLANAN STREET,YOUNG,NSW,2594,148.28846235,-34.3203849499999
485,BATLOW/ADELONG MULTI PURPOSE SERVICE,PUBLIC HOSPITAL,61-81 PIONEER STREET,BATLOW,NSW,2730,148.14810063,-35.52254418
486,GRIFFITH BASE HOSPITAL,PUBLIC HOSPITAL,1 NOOREBAR AVENUE,GRIFFITH,NSW,2680,146.04358964,-34.28214138
487,GUNDAGAI DISTRICT HOSPITAL,PUBLIC HOSPITAL,56 TOR STREET,GUNDAGAI,NSW,2722,148.10261001,-35.0526305299999
488,HAY DISTRICT HOSPITAL,PUBLIC HOSPITAL,351 MURRAY STREET,HAY,NSW,2711,144.85158178,-34.50042532
489,HILLSTON DISTRICT HOSPITAL,PUBLIC HOSPITAL,48C BURNS STREET,HILLSTON,NSW,2675,145.53903251,-33.47878911
490,JUNEE MULTI PURPOSE SERVICE,PUBLIC HOSPITAL,67 BROADWAY STREET,JUNEE,NSW,2663,147.57943533,-34.8652577299999
491,COOLAMON-GANMAIN MULTI PURPOSE SERVICE HOSPITAL,PUBLIC HOSPITAL,DR BUCHANAN DRIVE,COOLAMON,NSW,2701,147.19932618,-34.81988712
492,LEETON DISTRICT HOSPITAL,PUBLIC HOSPITAL,CNR PALM AND WADE AVENUE,LEETON,NSW,2705,146.40896599,-34.54497428
493,LOCKHART & DISTRICT HOSPITAL,PUBLIC HOSPITAL,53-55 HEBDEN STREET,LOCKHART,NSW,2656,146.71905875,-35.2223600099999
494,NARRANDERA HOSPITAL,PUBLIC HOSPITAL,54 ADAMS STREET,NARRANDERA,NSW,2700,146.54741981,-34.74290192
495,TEMORA HOSPITAL,PUBLIC HOSPITAL,168-182 LOFTUS STREET,TEMORA,NSW,2666,147.54333522,-34.44267157
496,TUMUT DISTRICT HOSPITAL,PUBLIC HOSPITAL,107-111 SIMPSON STREET,TUMUT,NSW,2720,148.21912998,-35.30755549
497,WAGGA WAGGA RURAL REFERRAL HOSPITAL,PUBLIC HOSPITAL,260-280 EDWARD STREET,WAGGA WAGGA,NSW,2650,147.35722441,-35.11859729
498,COOTAMUNDRA DISTRICT HOSPITAL,PUBLIC HOSPITAL,120 MACKAY STREET,COOTAMUNDRA,NSW,2590,148.01279384,-34.6343788299999
499,MENINDEE HEALTH SERVICE,PUBLIC HOSPITAL,21 PERRY STREET,MENINDEE,NSW,2879,142.41486835,-32.39032731
500,BOURKE MULTI PURPOSE SERVICE,PUBLIC HOSPITAL,26 TARCOON STREET,BOURKE,NSW,2840,145.9480621,-30.09273088
501,BREWARRINA MULTI PURPOSE SERVICE,PUBLIC HOSPITAL,56 DOYLE STREET,BREWARRINA,NSW,2839,146.86385882,-29.9616875799999
502,COBAR DISTRICT HOSPITAL,PUBLIC HOSPITAL,LERIDA ROAD,COBAR,NSW,2835,145.82554162,-31.5072791699999
503,COLLARENEBRI MULTI PURPOSE SERVICE,PUBLIC HOSPITAL,WALGETT STREET,COLLARENEBRI,NSW,2833,148.58190287,-29.5448855499999
504,COOLAH MULTI PURPOSE SERVICE,PUBLIC HOSPITAL,111-135 MARTIN STREET,COOLAH,NSW,2843,149.7100497,-31.8214767499999
505,COONABARABRAN DISTRICT HOSPITAL,PUBLIC HOSPITAL,101-103 EDWARDS STREET,COONABARABRAN,NSW,2357,149.28478147,-31.27478153
506,BARADINE MULTI PURPOSE SERVICE,PUBLIC HOSPITAL,5-9 MACQUARIE STREET,BARADINE,NSW,2396,149.06618948,-30.94530449
507,COONAMBLE HEALTH SERVICE,PUBLIC HOSPITAL,150 CASTLEREAGH STREET,COONAMBLE,NSW,2829,148.38762067,-30.96495723
508,GULARGAMBONE MULTI PURPOSE SERVICE,PUBLIC HOSPITAL,47 BOURBAH STREET,GULARGAMBONE,NSW,2828,148.46920234,-31.3298045999999
509,DUBBO BASE HOSPITAL,PUBLIC HOSPITAL,MYALL STREET,DUBBO,NSW,2830,148.62102321,-32.24004959
510,DUNEDOO MULTI PURPOSE SERVICE,PUBLIC HOSPITAL,70 DIGILAH STREET,DUNEDOO,NSW,2844,149.39736115,-32.0171989799999
511,GILGANDRA MULTI PURPOSE SERVICE,PUBLIC HOSPITAL,6 CHELMSFORD AVENUE,GILGANDRA,NSW,2827,148.66488825,-31.7045623999999
512,GOODOOGA HOSPITAL,PUBLIC HOSPITAL,49 HAMMOND STREET,GOODOOGA,NSW,2831,147.45622975,-29.11010851
513,GULGONG HEALTH SERVICE,PUBLIC HOSPITAL,34 GOOLMA ROAD,GULGONG,NSW,2852,149.52201754,-32.3668761599999
514,MUDGEE HEALTH SERVICE,PUBLIC HOSPITAL,MEARES STREET,MUDGEE,NSW,2850,149.58707526,-32.60326322
515,NARROMINE HOSPITAL & COMMUNITY HEALTH,PUBLIC HOSPITAL,128 CATHUNDRAL STREET,NARROMINE,NSW,2821,148.23919228,-32.24260083
516,NYNGAN MULTI PURPOSE SERVICE,PUBLIC HOSPITAL,15 HOSKINS STREET,NYNGAN,NSW,2825,147.20222228,-31.5617913299999
517,TRANGIE MULTI PURPOSE HEALTH SERVICE,PUBLIC HOSPITAL,28 HARRIS STREET,TRANGIE,NSW,2823,147.97676055,-32.0307689599999
518,WALGETT HEALTH SERVICE,PUBLIC HOSPITAL,141 FOX STREET,WALGETT,NSW,2832,148.11595164,-30.03064825
519,WARREN MULTI PURPOSE HEALTH SERVICE,PUBLIC HOSPITAL,LOT 176 DR KATER DRIVE,WARREN,NSW,2824,147.83566745,-31.69394983
520,WELLINGTON HEALTH SERVICE,PUBLIC HOSPITAL,30 THORNTON STREET,WELLINGTON,NSW,2820,148.95225959,-32.5498433999999
521,LIGHTNING RIDGE MULTIPURPOSE HEALTH SERVICE,PUBLIC HOSPITAL,LOT 25 PANDORA STREET,LIGHTNING RIDGE,NSW,2834,147.98186965,-29.42998146
522,LOURDES HOSPITAL & COMMUNITY SERVICES,PUBLIC HOSPITAL,80-110 COBBORA ROAD,DUBBO,NSW,2830,148.62771737,-32.2377544
523,BATHURST BASE HOSPITAL,PUBLIC HOSPITAL,361-365 HOWICK STREET,BATHURST,NSW,2795,149.57224787,-33.4062016899999
524,BLAYNEY MULTIPURPOSE SERVICE,PUBLIC HOSPITAL,3 OSMAN STREET,BLAYNEY,NSW,2799,149.25078239,-33.53784325
525,CANOWINDRA SOLDIERS MEMORIAL HOSPITAL,PUBLIC HOSPITAL,BROWNS AVENUE,CANOWINDRA,NSW,2804,148.67636504,-33.55711667
526,CONDOBOLIN DISTRICT HOSPITAL,PUBLIC HOSPITAL,MADLINE STREET,CONDOBOLIN,NSW,2877,147.15416202,-33.08232243
527,COWRA DISTRICT HOSPITAL,PUBLIC HOSPITAL,64 LIVERPOOL STREET,COWRA,NSW,2794,148.69237189,-33.83213856
528,EUGOWRA MEMORIAL MULTI PURPOSE SERVICE,PUBLIC HOSPITAL,COOPER STREET,EUGOWRA,NSW,2806,148.36685962,-33.4247119899999
529,FORBES DISTRICT HOSPITAL,PUBLIC HOSPITAL,4-6 ELGIN STREET,FORBES,NSW,2871,148.01383696,-33.3962842299999
530,GRENFELL MULTI PURPOSE SERVICE,PUBLIC HOSPITAL,80-96 COWRA ROAD,GRENFELL,NSW,2810,148.16783437,-33.8942862499999
531,LAKE CARGELLIGO MULTI PURPOSE SERVICE,PUBLIC HOSPITAL,UABBA STREET,LAKE CARGELLIGO,NSW,2672,146.37430734,-33.29202785
532,MOLONG HEALTH SERVICE,PUBLIC HOSPITAL,140 KING STREET,MOLONG,NSW,2866,148.85971202,-33.0876202499999
533,OBERON MULTI PURPOSE SERVICE,PUBLIC HOSPITAL,67-75 NORTH STREET,OBERON,NSW,2787,149.85359174,-33.7052447799999
534,ORANGE HEALTH SERVICE,PUBLIC HOSPITAL,1530 FOREST ROAD,ORANGE,NSW,2800,149.09395478,-33.3173267
535,PARKES DISTRICT HOSPITAL,PUBLIC HOSPITAL,18 COLEMAN ROAD,PARKES,NSW,2870,148.16938068,-33.12731508
536,PEAK HILL HEALTH SERVICE,PUBLIC HOSPITAL,111 NEWELL HIGHWAY,PEAK HILL,NSW,2869,148.19969357,-32.73520443
537,TRUNDLE MULTI PURPOSE SERVICE,PUBLIC HOSPITAL,44 BROOKVIEW STREET,TRUNDLE,NSW,2875,147.70423483,-32.9213253299999
538,RYLSTONE DISTRICT HOSPITAL,PUBLIC HOSPITAL,24 FITZGERALD STREET,RYLSTONE,NSW,2849,149.97532637,-32.80436954
539,TOTTENHAM HOSPITAL,PUBLIC HOSPITAL,LOT 10 MOONDANA STREET,TOTTENHAM,NSW,2873,147.35821934,-32.24255678
540,TULLAMORE MULTI PURPOSE HEALTH SERVICE,PUBLIC HOSPITAL,1 HINKLER STREET,TULLAMORE,NSW,2874,147.56890812,-32.63490913
541,BALRANALD MULTI PURPOSE SERVICE,PUBLIC HOSPITAL,41-43 COURT STREET,BALRANALD,NSW,2715,143.56899735,-34.6445395
542,WENTWORTH DISTRICT HOSPITAL,PUBLIC HOSPITAL,SILVER CITY HIGHWAY,WENTWORTH,NSW,2648,141.92247925,-34.1099768999999
543,BROKEN HILL BASE HOSPITAL,PUBLIC HOSPITAL,176 THOMAS STREET,BROKEN HILL,NSW,2880,141.45530581,-31.94751266
544,IVANHOE HEALTH SERVICE,PUBLIC HOSPITAL,11 COLUMBUS STREET,IVANHOE,NSW,2878,144.295812,-32.8944648799999
545,TIBOOBURRA HEALTH SERVICE,PUBLIC HOSPITAL,STURT STREET,TIBOOBURRA,NSW,2880,142.01282201,-29.4332127399999
546,WILCANNIA HEALTH SERVICE,PUBLIC HOSPITAL,1 - 4 ROSS STREET,WILCANNIA,NSW,2836,143.38548631,-31.5578583
547,CUMBERLAND HOSPITAL,PUBLIC HOSPITAL,1-11 HAINSWORTH STREET,WESTMEAD,NSW,2145,150.99525486,-33.8016081499999
548,JAMES FLETCHER,PUBLIC HOSPITAL,72 WATT STREET,NEWCASTLE,NSW,2300,151.78283055,-32.9313701299999
549,KENMORE HOSPITAL,PUBLIC HOSPITAL,109 TARALGA ROAD,GOULBURN,NSW,2580,149.75436906,-34.71595898
550,THE ALFRED,PUBLIC HOSPITAL,55 COMMERCIAL ROAD,PRAHRAN,VIC,3004,144.98193851,-37.84608614
551,AUSTIN HEALTH - AUSTIN HOSPITAL,PUBLIC HOSPITAL,145 STUDLEY ROAD,HEIDELBERG,VIC,3084,145.06023063,-37.7563466999999
552,AUSTIN HEALTH - HEIDELBERG REPATRIATION HOSPITAL,PUBLIC HOSPITAL,300 WATERDALE ROAD,HEIDELBERG WEST,VIC,3081,145.04748411,-37.75596962
553,BUNDOORA EXTENDED CARE CENTRE,PUBLIC HOSPITAL,1231 PLENTY ROAD,BUNDOORA,VIC,3083,145.05556835,-37.7011213
554,FOOTSCRAY HOSPITAL,PUBLIC HOSPITAL,160 GORDON STREET,FOOTSCRAY,VIC,3011,144.88719016,-37.79230232
555,THE ROYAL CHILDRENS HOSPITAL,PUBLIC HOSPITAL,50 FLEMINGTON ROAD,PARKVILLE,VIC,3052,144.94951964,-37.79439394
556,THE ROYAL WOMEN'S HOSPITAL,PUBLIC HOSPITAL,20 FLEMINGTON ROAD,PARKVILLE,VIC,3052,144.95482426,-37.79878265
557,THE ROYAL VICTORIAN EYE AND EAR HOSPITAL,PUBLIC HOSPITAL,32 GISBORNE STREET,EAST MELBOURNE,VIC,3002,144.9762494,-37.80897004
558,THE NORTHERN HOSPITAL,PUBLIC HOSPITAL,185 COOPER STREET,EPPING,VIC,3076,145.01494422,-37.65306949
559,WERRIBEE MERCY HOSPITAL,PUBLIC HOSPITAL,300 PRINCES HIGHWAY,WERRIBEE,VIC,3030,144.69862129,-37.88658287
560,ROYAL MELBOURNE HOSPITAL - CITY CAMPUS,PUBLIC HOSPITAL,300 GRATTAN STREET,PARKVILLE,VIC,3050,144.95606351,-37.79935589
561,ROYAL MELBOURNE HOSPITAL - ROYAL PARK CAMPUS,PUBLIC HOSPITAL,34-54 POPLAR ROAD,PARKVILLE,VIC,3052,144.9484508,-37.77806197
562,SUNSHINE HOSPITAL,PUBLIC HOSPITAL,176 FURLONG ROAD,ST ALBANS,VIC,3021,144.81646376,-37.75916647
563,ST VINCENT'S HOSPITAL (MELBOURNE) LTD,PUBLIC HOSPITAL,41 VICTORIA PARADE,FITZROY,VIC,3065,144.97522449,-37.80653921
564,WILLIAMSTOWN HOSPITAL,PUBLIC HOSPITAL,77B RAILWAY CRESCENT,WILLIAMSTOWN,VIC,3016,144.89233521,-37.8635765399999
565,PETER MACCALLUM CANCER CENTRE,PUBLIC HOSPITAL,2 ST ANDREWS PLACE,EAST MELBOURNE,VIC,3002,144.95636839,-37.8001834999999
566,TWEDDLE CHILD AND FAMILY HEALTH SERVICE,PUBLIC HOSPITAL,53 ADELAIDE STREET,FOOTSCRAY,VIC,3011,144.88741987,-37.79740442
567,BROADMEADOWS HEALTH SERVICE,PUBLIC HOSPITAL,35 JOHNSTONE STREET,BROADMEADOWS,VIC,3047,144.91310099,-37.6843234099999
568,CRAIGIEBURN COMMUNITY HOSPITAL,PUBLIC HOSPITAL,121 LYGON DRIVE,CRAIGIEBURN,VIC,3064,144.9177957,-37.59505059
569,ORAL HEALTH VICTORIA,PUBLIC HOSPITAL,720 SWANSTON STREET,CARLTON,VIC,3053,144.96483008,-37.7993498599999
570,ROYAL ADELAIDE HOSPITAL,PUBLIC HOSPITAL,PORT ROAD,ADELAIDE,SA,5000,138.5872333,-34.9209212
571,ROYAL ADELAIDE HOSPITAL - HAMPSTEAD REHABILITATION CENTRE,PUBLIC HOSPITAL,207-255 HAMPSTEAD ROAD,NORTHFIELD,SA,5085,138.62067557,-34.8606778499999
572,THE QUEEN ELIZABETH HOSPITAL,PUBLIC HOSPITAL,28 WOODVILLE ROAD,WOODVILLE SOUTH,SA,5011,138.53403679,-34.88417256
573,LYELL MCEWIN HOSPITAL,PUBLIC HOSPITAL,120-130 HAYDOWN ROAD,ELIZABETH VALE,SA,5112,138.66478985,-34.7476007399999
574,MODBURY HOSPITAL,PUBLIC HOSPITAL,41-69 SMART ROAD,MODBURY,SA,5092,138.69050934,-34.8341589
575,WOMENS AND CHILDRENS HOSPITAL,PUBLIC HOSPITAL,72 KING WILLIAM ROAD,NORTH ADELAIDE,SA,5006,138.59996113,-34.91151325
576,EASTERN EYRE HEALTH AND AGED CARE - CLEVE CAMPUS,PUBLIC HOSPITAL,NORTH TERRACE,CLEVE,SA,5640,136.49408793,-33.69800293
577,EASTERN EYRE HEALTH AND AGED CARE - COWELL CAMPUS,PUBLIC HOSPITAL,17 SOUTH TERRACE,COWELL,SA,5602,136.92139987,-33.68529317
578,CUMMINS HOSPITAL,PUBLIC HOSPITAL,19-21 TUMBY BAY ROAD,CUMMINS,SA,5631,135.73315986,-34.26415334
579,ELLISTON HOSPITAL,PUBLIC HOSPITAL,4-6 MEMORIAL DRIVE,ELLISTON,SA,5670,134.89244071,-33.64791342
580,EASTERN EYRE HEALTH AND AGED CARE - KIMBA CAMPUS,PUBLIC HOSPITAL,15 MARTIN TERRACE,KIMBA,SA,5641,136.41602024,-33.14354544
581,CEDUNA HOSPITAL,PUBLIC HOSPITAL,3 EYRE HIGHWAY,CEDUNA,SA,5690,133.67222153,-32.11904986
582,PORT LINCOLN HEALTH SERVICES,PUBLIC HOSPITAL,39 OXFORD TERRACE,PORT LINCOLN,SA,5606,135.8502958,-34.7240165699999
583,STREAKY BAY HOSPITAL,PUBLIC HOSPITAL,1 FLINDERS DRIVE,STREAKY BAY,SA,5680,134.21753023,-32.7927670399999
584,TUMBY BAY HOSPITAL,PUBLIC HOSPITAL,8-11 ESPLANADE,TUMBY BAY,SA,5605,136.10393107,-34.3722923199999
585,GUMERACHA HOSPITAL,PUBLIC HOSPITAL,2 ALBERT STREET,GUMERACHA,SA,5233,138.88157382,-34.8262734099999
586,KANGAROO ISLAND HEALTH SERVICE,PUBLIC HOSPITAL,3-7 THE ESPLANADE,KINGSCOTE,SA,5223,137.64128823,-35.65269166
587,KAROONDA AND DISTRICT SOLDIERS' MEMORIAL HOSPITAL,PUBLIC HOSPITAL,STOKES ROAD,KAROONDA,SA,5307,139.88968042,-35.09426817
588,LAMEROO DISTRICT HOSPITAL,PUBLIC HOSPITAL,1A VARDON TERRACE,LAMEROO,SA,5302,140.51464441,-35.32819405
589,TAILEM BEND HOSPITAL,PUBLIC HOSPITAL,PRINCES HIGHWAY,TAILEM BEND,SA,5260,139.45268562,-35.25480551
590,MANNUM DISTRICT HOSPITAL,PUBLIC HOSPITAL,PARKER STREET,MANNUM,SA,5238,139.30861025,-34.91647291
591,MENINGIE AND DISTRICTS MEMORIAL HOSPITAL,PUBLIC HOSPITAL,2 SOUTH TERRACE,MENINGIE,SA,5264,139.33556524,-35.69319866
592,MOUNT BARKER DISTRICT SOLDIERS MEMORIAL HOSPITAL,PUBLIC HOSPITAL,87 WELLINGTON ROAD,MOUNT BARKER,SA,5251,138.87027361,-35.0818045
593,MOUNT PLEASANT HOSPITAL,PUBLIC HOSPITAL,28 HOSPITAL ROAD,MOUNT PLEASANT,SA,5235,139.05452591,-34.77379832
594,MURRAY BRIDGE SOLDIERS’ MEMORIAL HOSPITAL,PUBLIC HOSPITAL,96 SWANPORT ROAD,MURRAY BRIDGE,SA,5253,139.28058654,-35.12891167
595,PINNAROO SOLDIERS' MEMORIAL HOSPITAL,PUBLIC HOSPITAL,BUNDEY TERRACE,PINNAROO,SA,5304,140.90244634,-35.2574982699999
596,SOUTH COAST DISTRICT HOSPITAL,PUBLIC HOSPITAL,56-82 BAY ROAD,VICTOR HARBOR,SA,5211,138.60645218,-35.56117025
597,STRATHALBYN AND DISTRICT HEALTH SERVICES,PUBLIC HOSPITAL,14 ALFRED PLACE,STRATHALBYN,SA,5255,138.89355798,-35.2576721899999
598,BOOLEROO CENTRE DISTRICT HOSPITAL & HEALTH SERVICES,PUBLIC HOSPITAL,5-9 STEPHENS STREET,BOOLEROO CENTRE,SA,5482,138.35096222,-32.877913
599,CRYSTAL BROOK DAY AND DISTRICT HOSPITAL,PUBLIC HOSPITAL,EDMUND TERRACE,CRYSTAL BROOK,SA,5523,138.21323605,-33.35429799
600,JAMESTOWN HOSPITAL AND HEALTH SERVICE,PUBLIC HOSPITAL,100 SOUTH TERRACE,JAMESTOWN,SA,5491,138.6165647,-33.21221136
601,LAURA CAMPUS,PUBLIC HOSPITAL,MILL STREET,LAURA,SA,5480,138.29869022,-33.1749243199999
602,ORROROO CAMPUS,PUBLIC HOSPITAL,PEKINA ROAD,ORROROO,SA,5431,138.60720371,-32.73851533
603,PETERBOROUGH CAMPUS,PUBLIC HOSPITAL,23 HURLSTONE STREET,PETERBOROUGH,SA,5422,138.83034643,-32.98078529
604,PORT BROUGHTON DISTRICT HOSPITAL AND HEALTH SERVICES,PUBLIC HOSPITAL,BAY STREET,PORT BROUGHTON,SA,5522,137.93390888,-33.6010896499999
605,PORT PIRIE HOSPITAL,PUBLIC HOSPITAL,ALEXANDER STREET,PORT PIRIE,SA,5540,138.0055303,-33.17734318
606,REPATRIATION GENERAL HOSPITAL,PUBLIC HOSPITAL,216 DAWS ROAD,DAW PARK,SA,5041,138.58973024,-34.9905864799999
607,FAR NORTH HEALTH SERVICES,PUBLIC HOSPITAL,LOT 89 HOSPITAL ROAD,COOBER PEDY,SA,5723,134.76206235,-29.00488482
608,HAWKER MEMORIAL HOSPITAL,PUBLIC HOSPITAL,9 DRUID RANGE DRIVE,HAWKER,SA,5434,138.4280553,-31.8934015299999
609,PORT AUGUSTA HOSPITAL & REGIONAL HEALTH SERVICE,PUBLIC HOSPITAL,71 HOSPITAL ROAD,PORT AUGUSTA,SA,5700,137.77571113,-32.5103324999999
610,QUORN HEALTH SERVICE,PUBLIC HOSPITAL,2 HOSPITAL ROAD,QUORN,SA,5433,138.0383812,-32.3509226199999
611,ROXBY DOWNS HEALTH SERVICE,PUBLIC HOSPITAL,16-28 BURGOYNE STREET,ROXBY DOWNS,SA,5725,136.89425711,-30.56277915
612,WHYALLA HOSPITAL & HEALTH SERVICE,PUBLIC HOSPITAL,20 WOOD TERRACE,WHYALLA,SA,5600,137.57755521,-33.03397116
613,BARMERA HEALTH SERVICE,PUBLIC HOSPITAL,HAWDON STREET,BARMERA,SA,5345,140.47169702,-34.2491373899999
614,RIVERLAND GENERAL HOSPITAL,PUBLIC HOSPITAL,10 MADDERN STREET,BERRI,SA,5343,140.60157585,-34.2758676399999
615,LOXTON HOSPITAL COMPLEX,PUBLIC HOSPITAL,DRABSCH STREET,LOXTON,SA,5333,140.56448164,-34.45448856
616,RENMARK PARINGA DISTRICT HOSPITAL,PUBLIC HOSPITAL,RAL RAL AVENUE,RENMARK,SA,5341,140.7452041,-34.1648353799999
617,WAIKERIE HEALTH SERVICE,PUBLIC HOSPITAL,1 LAWRIE TERRACE,WAIKERIE,SA,5330,139.98491401,-34.18244363
618,BORDERTOWN MEMORIAL HOSPITAL,PUBLIC HOSPITAL,23 SOUTH TERRACE,BORDERTOWN,SA,5268,140.76643382,-36.31212807
619,KINGSTON SOLDIERS' MEMORIAL HOSPITAL,PUBLIC HOSPITAL,CNR COOKE STREET AND YOUNG STREET,KINGSTON SE,SA,5275,139.84876182,-36.83549912
620,MILLICENT AND DISTRICT HOSPITAL AND HEALTH SERVICES,PUBLIC HOSPITAL,15 MOUNT GAMBIER ROAD,MILLICENT,SA,5280,140.35895273,-37.5981335499999
621,MOUNT GAMBIER AND DISTRICTS HEALTH SERVICE,PUBLIC HOSPITAL,276-300 WEHL STREET NORTH,MOUNT GAMBIER,SA,5290,140.78666163,-37.80498861
622,NARACOORTE HEALTH SERVICE,PUBLIC HOSPITAL,101 JENKINS TERRACE,NARACOORTE,SA,5271,140.74369468,-36.9668421599999
623,PENOLA WAR MEMORIAL HOSPITAL,PUBLIC HOSPITAL,18 CHURCH STREET,PENOLA,SA,5277,140.83646478,-37.38286894
624,FLINDERS MEDICAL CENTRE,PUBLIC HOSPITAL,FLINDERS DRIVE,BEDFORD PARK,SA,5042,138.5690953,-35.0225883699999
625,NOARLUNGA HOSPITAL,PUBLIC HOSPITAL,ALEXANDER KELLY DRIVE,NOARLUNGA CENTRE,SA,5168,138.5002116,-35.13987313
626,GAWLER HEALTH SERVICE,PUBLIC HOSPITAL,21 HUTCHINSON ROAD,GAWLER EAST,SA,5118,138.75505523,-34.5937311399999
627,ANGASTON HOSPITAL,PUBLIC HOSPITAL,29 NORTH STREET,ANGASTON,SA,5353,139.05416917,-34.5037837099999
628,BALAKLAVA HOSPITAL,PUBLIC HOSPITAL,16 WAR MEMORIAL DRIVE,BALAKLAVA,SA,5461,138.4198075,-34.13945031
629,BURRA HOSPITAL,PUBLIC HOSPITAL,46 COMMERCIAL STREET,BURRA,SA,5417,138.9345761,-33.6854767899999
630,CLARE HOSPITAL,PUBLIC HOSPITAL,47 FARRELL FLAT ROAD,CLARE,SA,5453,138.61440206,-33.82959785
631,EUDUNDA HOSPITAL,PUBLIC HOSPITAL,40 WARD STREET,EUDUNDA,SA,5374,139.09058618,-34.17547404
632,KAPUNDA HOSPITAL,PUBLIC HOSPITAL,LOT 40 NASH STREET,KAPUNDA,SA,5373,138.92167251,-34.3302930199999
633,MAITLAND HOSPITAL (SA),PUBLIC HOSPITAL,65 ROBERT STREET,MAITLAND,SA,5573,137.67423236,-34.37043735
634,RIVERTON HOSPITAL,PUBLIC HOSPITAL,23 MOORHOUSE TERRACE,RIVERTON,SA,5412,138.74265667,-34.16035297
635,SNOWTOWN HOSPITAL,PUBLIC HOSPITAL,8 SOUTH TERRACE,SNOWTOWN,SA,5520,138.21276564,-33.78693408
636,SOUTHERN YORKE PENINSULA HEALTH SERVICES,PUBLIC HOSPITAL,19 WATERLOO BAY ROAD,YORKETOWN,SA,5576,137.60492893,-35.02098024
637,TANUNDA HOSPITAL,PUBLIC HOSPITAL,15 MILL STREET,TANUNDA,SA,5352,138.96086286,-34.5280630199999
638,WALLAROO HOSPITAL,PUBLIC HOSPITAL,1 ERNEST TERRACE,WALLAROO,SA,5556,137.63678303,-33.9277309899999
639,GLENSIDE HEALTH SERVICES,PUBLIC HOSPITAL,KARRAYARTA DR,GLENSIDE,SA,5065,138.6270142,-34.94510244
640,MERSEY COMMUNITY HOSPITAL,PUBLIC HOSPITAL,BASS HIGHWAY,LATROBE,TAS,7307,146.42243594,-41.2290520999999
641,TRESILLIAN FAMILY CARE CENTRE - BELMORE,PUBLIC HOSPITAL,MCKENZIE STREET,BELMORE,NSW,2192,151.09752475,-33.91873342
642,MERCY HOSPITAL FOR WOMEN,PUBLIC HOSPITAL,163 STUDLEY ROAD,HEIDELBERG,VIC,3084,145.06100999,-37.7560629399999
643,ST GEORGE'S HEALTH SERVICE,PUBLIC HOSPITAL,283 COTHAM ROAD,KEW,VIC,3101,145.05282308,-37.8090989199999
644,WUDINNA HOSPITAL,PUBLIC HOSPITAL,16-24 RICHARDS AVENUE,WUDINNA,SA,5652,135.46698489,-33.05026892
645,TASMAN MULTI-PURPOSE CENTRE,PUBLIC HOSPITAL,1614 NUBEENA ROAD,NUBEENA,TAS,7184,147.74284172,-43.09674713
646,DUMBLEYUNG MEMORIAL HOSPITAL,PUBLIC HOSPITAL,186 MCINTYRE STREET,DUMBLEYUNG,WA,6350,117.74052231,-33.3101699599999
647,MCLAREN VALE & DISTRICTS WAR MEMORIAL HOSPITAL INCORPORATED,PUBLIC HOSPITAL,3 ALDERSEY STREET,MCLAREN VALE,SA,5171,138.54473858,-35.22125685
648,HUON REGIONAL CARE,PUBLIC HOSPITAL,3278 HUON HIGHWAY,FRANKLIN,TAS,7113,147.0163805,-43.08086377
649,THOMAS EMBLING HOSPITAL,PUBLIC HOSPITAL,YARRA BEND ROAD,FAIRFIELD,VIC,3078,145.01212242,-37.78901092
650,ROBINA HOSPITAL,PUBLIC HOSPITAL,2 BAYBERRY LANE,ROBINA,QLD,4226,153.37570337,-28.07104516
651,THE MORNINGTON CENTRE,PUBLIC HOSPITAL,CNR TYALLA GROVE & SEPARATION STREET,MORNINGTON,VIC,3931,145.04123202,-38.2303185599999
652,RPAH INSTITUTE OF RHEUMATOLOGY & ORTHOPAEDICS,PUBLIC HOSPITAL,57-59 MISSENDEN RD,CAMPERDOWN,NSW,2050,151.18037323,-33.88835432
653,IAHS MENTAL HEALTH SERVICES,PUBLIC HOSPITAL,"WOLLONGONG MENTAL HEALTH INPATIENT UNIT, LEVEL 3 BLOCK C, WOLLONGONG HOSPITAL, LOFTUS ST",WOLLONGONG,NSW,2500,150.88299965,-34.42499836
654,WENTWORTH PSYCHIATRIC SERVICES,PUBLIC HOSPITAL,DERBY ST,PENRITH,NSW,2750,150.71387206,-33.75948031
655,THOMAS WALKER HOSPITAL – RIVENDELL,PUBLIC HOSPITAL,HOSPITAL ROAD,CONCORD WEST,NSW,2138,151.09788391,-33.83232893
656,CORAL TREE FAMILY CENTRE,PUBLIC HOSPITAL,BADAJOZ AND TWIN ROADS,NORTH RYDE,NSW,2113,151.12600216,-33.8041966499999
657,MORISSET PSYCHIATRIC HOSPITAL,PUBLIC HOSPITAL,OFF DORA STREET,MORISSET,NSW,2264,151.51277426,-33.1285413799999
658,SWAN HILL DISTRICT HEALTH [NYAH],PUBLIC HOSPITAL,MONASH AVE,NYAH WEST,VIC,3595,143.35542635,-35.1860458199999
659,WESTERN HOSPITAL ORYGEN INPATIENT UNIT,PUBLIC HOSPITAL,35 MAVIS STREET,FOOTSCRAY,VIC,3011,144.88661773,-37.79191573
660,PREGNANCY ADVISORY CENTRE,PUBLIC HOSPITAL,21 BELMORE TERRACE,WOODVILLE,SA,5011,138.54294282,-34.87998851
661,SELBY OLDER ADULT MENTAL HEALTH SERVICE,PUBLIC HOSPITAL,6 LEMNOS STREET,SHENTON PARK,WA,6008,115.80199061,-31.95820041
662,CENTRAL DRUG UNIT (NEXT STEP),PUBLIC HOSPITAL,32 MOORE STREET,EAST PERTH,WA,6004,115.86917067,-31.9533939099999
663,GOLF LINKS ROAD REHABILITATION CENTRE,PUBLIC HOSPITAL,125 GOLF LINKS ROAD,FRANKSTON,VIC,3199,145.14976702,-38.17344808
664,YARRA RANGES HEALTH,PUBLIC HOSPITAL,25 MARKET STREET,LILYDALE,VIC,3140,145.35133864,-37.75667462
665,JUSTICE HEALTH (1117C1010),PUBLIC HOSPITAL,1300 ANZAC PARADE,MALABAR,NSW,2036,151.24358983,-33.97088056
666,THE PARK - CENTRE FOR MENTAL HEALTH,PUBLIC HOSPITAL,CRN ELLERTON DRIVE & WOLSTON PARK ROAD,WACOL,QLD,4076,152.91024352,-27.60041017
667,STATEWIDE MENTAL HEALTH SERVICES,PUBLIC HOSPITAL,85 CREEK ROAD,NEW TOWN,TAS,7008,147.2947794,-42.85615087
668,SUNBURY DAY HOSPITAL,PUBLIC HOSPITAL,7 MACEDON STREET,SUNBURY,VIC,3429,144.73239818,-37.57682592
669,HAWKESBURY DISTRICT HEALTH SERVICE,PUBLIC HOSPITAL,1 DAY STREET,WINDSOR,NSW,2756,150.8206164,-33.61040601
670,NSCCAHS ACUTE AND POST-ACUTE CENTRE (APAC),PUBLIC HOSPITAL,"MAIN BLOCK, LEVEL 13, ROYAL NORTH SHORE HOSPITAL, PACIFIC HWY",ST LEONARDS,NSW,2065,151.1914746,-33.82093695
671,STATE FORENSIC MENTAL HEALTH SERVICE,PUBLIC HOSPITAL,BROCKWAY ROAD,MOUNT CLAREMONT,WA,6010,115.79100533,-31.96139872
672,GOLD COAST UNIVERSITY HOSPITAL,PUBLIC HOSPITAL,1 HOSPITAL BOULEVARD,SOUTHPORT,QLD,4215,153.38193636,-27.95939514
673,QUEENSLAND CHILDREN'S HOSPITAL,PUBLIC HOSPITAL,501 STANLEY STREET,SOUTH BRISBANE,QLD,4101,153.02655447,-27.4839829599999
674,SEA LAKE & DISTRICT HOSPITAL,PUBLIC HOSPITAL,33-43 MCCLELLAND AVENUE,SEA LAKE,VIC,3533,142.8579632,-35.50063583
675,FIONA STANLEY HOSPITAL,PUBLIC HOSPITAL,102-118 MURDOCH DRIVE,MURDOCH,WA,6150,115.84626249,-32.07045357
676,WOMENS AT SANDRINGHAM,PUBLIC HOSPITAL,193 BLUFF ROAD,SANDRINGHAM,VIC,3191,145.01815196,-37.9610354499999
677,ST JOHN OF GOD MIDLAND HEALTH CAMPUS - PUBLIC,PUBLIC HOSPITAL,1 CLAYTON STREET,MIDLAND,WA,6056,116.00801723,-31.89452771
678,SUNSHINE COAST UNIVERSITY HOSPITAL,PUBLIC HOSPITAL,6 DOHERTY STREET,BIRTINYA,QLD,4575,153.11343414,-26.74695215
679,BYRON CENTRAL HOSPITAL,PUBLIC HOSPITAL,54 EWINGSDALE ROAD,EWINGSDALE,NSW,2481,153.55628218,-28.6377591999999
680,URSULA FRAYNE CENTRE,PUBLIC HOSPITAL,35 MAVIS STREET,FOOTSCRAY,VIC,3011,144.88720945,-37.79167999
681,MACQUARIE HOSPITAL,PUBLIC HOSPITAL,CNR WICKS RD & COXS RD,NORTH RYDE,NSW,2113,151.12762725,-33.8027057199999
682,PALMERSTON REGIONAL HOSPITAL,PUBLIC HOSPITAL,LINCO ROAD,HOLTZE,NT,0829,131.00392862,-12.47592989
683,PERTH CHILDREN’S HOSPITAL,PUBLIC HOSPITAL,15 HOSPITAL AVENUE,NEDLANDS,WA,6009,115.81707508,-31.96931598
684,NORTHERN BEACHES HOSPITAL,PUBLIC HOSPITAL,105 FRENCHS FOREST ROAD,FRENCHS FOREST,NSW,2086,151.23299102,-33.7508907
685,BARWON HEALTH NORTH,PUBLIC HOSPITAL,155 PRINCESS HIGHWAY,NORLANE,VIC,3214,144.35725295,-38.08456065
686,BENDIGO HEALTH - BENDIGO HOSPITAL,PUBLIC HOSPITAL,100 BARNARD STREET,BENDIGO,VIC,3550,144.28064922,-36.74960284
687,JAMES NASH HOUSE,PUBLIC HOSPITAL,140 HILLTOP DRIVE,OAKDEN,SA,5086,138.63722654,-34.8510361099999
688,WILFRED LOPES CENTRE,PUBLIC HOSPITAL,EAST DERWENT HIGHWAY,RISDON VALE,TAS,7016,147.34365388,-42.8154492799999
689,KARRATHA HEALTH CAMPUS,PUBLIC HOSPITAL,62 BALMORAL ROAD,KARRATHA,WA,6714,116.8409055,-20.73261537
690,JACARANDA PLACE – QUEENSLAND ADOLESCENT EXTENDED TREATMENT CENTRE,PUBLIC HOSPITAL,78 FARNELL STREET,CHERMSIDE,QLD,4032,153.02613131,-27.38802026
691,SURGICAL TREATMENT AND REHABILITATION SERVICE (STARS),PUBLIC HOSPITAL,296 HERSTON ROAD,HERSTON,QLD,4029,153.02625573,-27.44948923
692,OLD GEELONG PRIVATE,PUBLIC HOSPITAL,56-58 BELLERINE AND RYRIE ST,GEELONG,VIC,3220,144.36439781,-38.15089017
693,PHILIP ISLAND HEALTH HUB,PUBLIC HOSPITAL,50 CHURCH ST,COWES,VIC,3922,145.24118741,-38.45200018
694,ST VINCENT'S HOSPITAL ON THE PARK,PUBLIC HOSPITAL,11 CATHEDRAL PLACE,EAST MELBOURNE,VIC,3002,144.97782148,-37.8109473499999
695,VICTORIAN HEART HOSPITAL,PUBLIC HOSPITAL,631 BLACKBURN ROAD,CLAYTON,VIC,3168,145.13988587,-37.9124179299999
696,FRANKSTON PUBLIC SURGICAL CENTRE,PUBLIC HOSPITAL,5 SUSONO WAY,FRANKSTON,VIC,3199,145.1328789,-38.15431432
697,EASTERN HEALTH BLACKBURN PUBLIC SURGICAL CENTRE,PUBLIC HOSPITAL,188 - 198 CANTERBURY ROAD,BLACKBURN,VIC,3130,145.1561813,-37.83331801
698,MONASH HEALTH WOMEN'S SANDRINGHAM,PUBLIC HOSPITAL,193 BLUFF ROAD,SANDRINGHAM,VIC,3191,145.01815196,-37.9610354499999
699,GLENSIDE RURAL & REMOTE,PUBLIC HOSPITAL,226 FULLARTON ROAD,GLENSIDE,SA,5065,138.62866309,-34.94459246
700,JUSTICE HEALTH (1417C1270),PUBLIC HOSPITAL,1300 ANZAC PARADE,MALABAR,NSW,2036,151.24358983,-33.97088056
